<?xml version='1.0' encoding='UTF-8'?>
<gpx xmlns="http://www.topografix.com/GPX/1/1" xmlns:ns2="http://www.garmin.com/xmlschemas/GpxExtensions/v3" xmlns:xsi="http://www.w3.org/2001/XMLSchema-instance" version="1.1" creator="HikingGuy.com - https://hikingguy.com" xsi:schemaLocation="">
    <metadata>
        <name>Lost Coast Trail Guide</name>
        <author>
            <name>HikingGuy.com</name>
        </author>
        <link href="https://hikingguy.com/hikes/lost-coast-trail/" />
        <time>2022-03-17T12:22:43.180Z</time>
    </metadata>
    <wpt lon="-124.355524" lat="40.289116">
        <name>Mattole Trailhead Parking</name>
    </wpt>
    <wpt lon="-124.186003" lat="40.132523">
        <name>Big Flat</name>
    </wpt>
    <wpt lon="-124.258649" lat="40.186087">
        <name>Spanish Flats Camp</name>
    </wpt>
    <wpt lon="-124.266437" lat="40.192865">
        <name>Camp</name>
    </wpt>
    <wpt lon="-124.101628" lat="40.094444">
        <name>Gitchell Creek Camp</name>
    </wpt>
    <wpt lon="-124.325225" lat="40.233275">
        <name>Hat Rock / Always Impassable</name>
    </wpt>
    <wpt lon="-124.309435" lat="40.219163">
        <name>Cooksie Creek Camp</name>
    </wpt>
    <wpt lon="-124.350242" lat="40.249377">
        <name>Punta Gorda Lighthouse</name>
    </wpt>
    <wpt lon="-124.356311" lat="40.288946">
        <name>Mattole Trailhead</name>
    </wpt>
    <wpt lon="-124.080632" lat="40.069511">
        <name>Horse Mountain Creek Camp</name>
    </wpt>
    <wpt lon="-124.220819" lat="40.165875">
        <name>Private Cabins</name>
    </wpt>
    <wpt lon="-124.229391" lat="40.172115">
        <name>Kinsey Creek Camp</name>
    </wpt>
    <wpt lon="-124.254631" lat="40.184079">
        <name>Spanish Creek Camp</name>
    </wpt>
    <wpt lon="-124.274345" lat="40.197928">
        <name>Camp</name>
    </wpt>
    <wpt lon="-124.299720" lat="40.211780">
        <name>Very Narrow</name>
    </wpt>
    <wpt lon="-124.249228" lat="40.181965">
        <name>Private Cabin</name>
    </wpt>
    <wpt lon="-124.144881" lat="40.117834">
        <name>Shipman Creek Camp</name>
    </wpt>
    <wpt lon="-124.210726" lat="40.157301">
        <name>Big Creek Camp</name>
    </wpt>
    <wpt lon="-124.174638" lat="40.127634">
        <name>Miller Flat Camp</name>
    </wpt>
    <wpt lon="-124.304130" lat="40.214690">
        <name>Very Narrow</name>
    </wpt>
    <wpt lon="-124.311945" lat="40.221011">
        <name>Very Narrow</name>
    </wpt>
    <wpt lon="-124.283590" lat="40.201190">
        <name>Very Narrow</name>
    </wpt>
    <wpt lon="-124.215710" lat="40.162420">
        <name>Very Narrow</name>
    </wpt>
    <wpt lon="-124.077643" lat="40.045537">
        <name>Shelter Cove Parking</name>
    </wpt>
    <wpt lon="-124.168450" lat="40.124172">
        <name>Very Narrow</name>
    </wpt>
    <wpt lon="-124.180764" lat="40.132798">
        <name>Private House</name>
    </wpt>
    <wpt lon="-124.160964" lat="40.122111">
        <name>Very Narrow</name>
    </wpt>
    <wpt lon="-124.121053" lat="40.108670">
        <name>Buck Creek Camp</name>
    </wpt>
    <wpt lon="-124.282242" lat="40.200753">
        <name>Randall Creek Camp</name>
    </wpt>
    <wpt lon="-124.331953" lat="40.239973">
        <name>Sea Lion Gulch Camp</name>
    </wpt>
    <trk>
        <name>Tidal Zone 2</name>
        <extensions>
            <ns2:TrackExtension>
                <ns2:DisplayColor>Red</ns2:DisplayColor>
            </ns2:TrackExtension>
        </extensions>
        <trkseg>
            <trkpt lon="-124.330540" lat="40.238090"><ele>0.0</ele></trkpt>
            <trkpt lon="-124.327648" lat="40.236034"><ele>0.0</ele></trkpt>
            <trkpt lon="-124.326516" lat="40.233814"><ele>0.0</ele></trkpt>
            <trkpt lon="-124.325234" lat="40.230661"><ele>0.0</ele></trkpt>
            <trkpt lon="-124.323480" lat="40.227786"><ele>0.0</ele></trkpt>
            <trkpt lon="-124.314125" lat="40.220782"><ele>0.0</ele></trkpt>
            <trkpt lon="-124.309039" lat="40.216509"><ele>0.0</ele></trkpt>
            <trkpt lon="-124.304211" lat="40.212466"><ele>0.0</ele></trkpt>
            <trkpt lon="-124.299823" lat="40.210352"><ele>0.0</ele></trkpt>
            <trkpt lon="-124.296025" lat="40.207214"><ele>0.0</ele></trkpt>
            <trkpt lon="-124.288386" lat="40.202380"><ele>0.0</ele></trkpt>
            <trkpt lon="-124.283783" lat="40.199758"><ele>0.0</ele></trkpt>
            <trkpt lon="-124.282775" lat="40.201011"><ele>46.0</ele></trkpt>
            <trkpt lon="-124.288316" lat="40.203730"><ele>90.0</ele></trkpt>
            <trkpt lon="-124.292452" lat="40.207136"><ele>44.0</ele></trkpt>
            <trkpt lon="-124.302248" lat="40.214170"><ele>98.0</ele></trkpt>
            <trkpt lon="-124.305649" lat="40.216456"><ele>49.0</ele></trkpt>
            <trkpt lon="-124.309790" lat="40.219225"><ele>36.0</ele></trkpt>
            <trkpt lon="-124.311619" lat="40.221148"><ele>53.0</ele></trkpt>
            <trkpt lon="-124.321206" lat="40.228998"><ele>33.0</ele></trkpt>
            <trkpt lon="-124.324392" lat="40.234535"><ele>25.0</ele></trkpt>
            <trkpt lon="-124.326114" lat="40.236992"><ele>39.0</ele></trkpt>
            <trkpt lon="-124.328651" lat="40.238597"><ele>38.0</ele></trkpt>
            <trkpt lon="-124.330540" lat="40.238090"><ele>0.0</ele></trkpt>
        </trkseg>
    </trk>
    <trk>
        <name>No Camping Zone</name>
        <extensions>
            <ns2:TrackExtension>
                <ns2:DisplayColor>Yellow</ns2:DisplayColor>
            </ns2:TrackExtension>
        </extensions>
        <trkseg>
            <trkpt lon="-124.079948" lat="40.048630"><ele>0.0</ele></trkpt>
            <trkpt lon="-124.079851" lat="40.048737"><ele>0.0</ele></trkpt>
            <trkpt lon="-124.078564" lat="40.048605"><ele>0.0</ele></trkpt>
            <trkpt lon="-124.076654" lat="40.046265"><ele>60.0</ele></trkpt>
            <trkpt lon="-124.078145" lat="40.044679"><ele>20.0</ele></trkpt>
            <trkpt lon="-124.080227" lat="40.044926"><ele>0.0</ele></trkpt>
            <trkpt lon="-124.079959" lat="40.048638"><ele>0.0</ele></trkpt>
            <trkpt lon="-124.079948" lat="40.048630"><ele>0.0</ele></trkpt>
        </trkseg>
    </trk>
    <trk>
        <name>Tidal Zone 3</name>
        <extensions>
            <ns2:TrackExtension>
                <ns2:DisplayColor>Red</ns2:DisplayColor>
            </ns2:TrackExtension>
        </extensions>
        <trkseg>
            <trkpt lon="-124.172238" lat="40.123849"><ele>0.0</ele></trkpt>
            <trkpt lon="-124.154471" lat="40.118418"><ele>0.0</ele></trkpt>
            <trkpt lon="-124.148462" lat="40.116251"><ele>0.0</ele></trkpt>
            <trkpt lon="-124.134043" lat="40.111919"><ele>0.0</ele></trkpt>
            <trkpt lon="-124.120739" lat="40.105683"><ele>0.0</ele></trkpt>
            <trkpt lon="-124.111470" lat="40.100382"><ele>0.0</ele></trkpt>
            <trkpt lon="-124.104775" lat="40.093603"><ele>0.0</ele></trkpt>
            <trkpt lon="-124.100054" lat="40.096098"><ele>211.0</ele></trkpt>
            <trkpt lon="-124.108036" lat="40.103246"><ele>80.0</ele></trkpt>
            <trkpt lon="-124.117263" lat="40.109047"><ele>195.0</ele></trkpt>
            <trkpt lon="-124.145931" lat="40.120042"><ele>261.0</ele></trkpt>
            <trkpt lon="-124.168590" lat="40.125736"><ele>9.0</ele></trkpt>
            <trkpt lon="-124.172667" lat="40.127081"><ele>7.0</ele></trkpt>
            <trkpt lon="-124.174019" lat="40.125473"><ele>0.0</ele></trkpt>
            <trkpt lon="-124.172238" lat="40.123849"><ele>0.0</ele></trkpt>
        </trkseg>
    </trk>
    <trk>
        <name>Lost Coast Trail</name>
        <extensions>
            <ns2:TrackExtension>
                <ns2:DisplayColor>Magenta</ns2:DisplayColor>
            </ns2:TrackExtension>
        </extensions>
        <trkseg>
            <trkpt lon="-124.356320" lat="40.288985"><ele>5.0</ele></trkpt>
            <trkpt lon="-124.356739" lat="40.288936"><ele>7.0</ele></trkpt>
            <trkpt lon="-124.357039" lat="40.288977"><ele>7.0</ele></trkpt>
            <trkpt lon="-124.357361" lat="40.289059"><ele>7.0</ele></trkpt>
            <trkpt lon="-124.357704" lat="40.289010"><ele>3.0</ele></trkpt>
            <trkpt lon="-124.358241" lat="40.288535"><ele>3.0</ele></trkpt>
            <trkpt lon="-124.358798" lat="40.288044"><ele>0.0</ele></trkpt>
            <trkpt lon="-124.359142" lat="40.287520"><ele>0.0</ele></trkpt>
            <trkpt lon="-124.359635" lat="40.286849"><ele>0.0</ele></trkpt>
            <trkpt lon="-124.360097" lat="40.285793"><ele>0.0</ele></trkpt>
            <trkpt lon="-124.360451" lat="40.285179"><ele>0.0</ele></trkpt>
            <trkpt lon="-124.360547" lat="40.283895"><ele>3.0</ele></trkpt>
            <trkpt lon="-124.361009" lat="40.282111"><ele>0.0</ele></trkpt>
            <trkpt lon="-124.361137" lat="40.281472"><ele>4.0</ele></trkpt>
            <trkpt lon="-124.361148" lat="40.280777"><ele>5.0</ele></trkpt>
            <trkpt lon="-124.361234" lat="40.280285"><ele>5.0</ele></trkpt>
            <trkpt lon="-124.361427" lat="40.279737"><ele>7.0</ele></trkpt>
            <trkpt lon="-124.361395" lat="40.279213"><ele>7.0</ele></trkpt>
            <trkpt lon="-124.361470" lat="40.278599"><ele>6.0</ele></trkpt>
            <trkpt lon="-124.361620" lat="40.278239"><ele>8.0</ele></trkpt>
            <trkpt lon="-124.361899" lat="40.277642"><ele>0.0</ele></trkpt>
            <trkpt lon="-124.362039" lat="40.277184"><ele>4.0</ele></trkpt>
            <trkpt lon="-124.362071" lat="40.276815"><ele>4.0</ele></trkpt>
            <trkpt lon="-124.362049" lat="40.276562"><ele>5.0</ele></trkpt>
            <trkpt lon="-124.362135" lat="40.275989"><ele>5.0</ele></trkpt>
            <trkpt lon="-124.362221" lat="40.275489"><ele>7.0</ele></trkpt>
            <trkpt lon="-124.362296" lat="40.274892"><ele>8.0</ele></trkpt>
            <trkpt lon="-124.362339" lat="40.274360"><ele>8.0</ele></trkpt>
            <trkpt lon="-124.362436" lat="40.273967"><ele>9.0</ele></trkpt>
            <trkpt lon="-124.362403" lat="40.273631"><ele>9.0</ele></trkpt>
            <trkpt lon="-124.362242" lat="40.273181"><ele>7.0</ele></trkpt>
            <trkpt lon="-124.362039" lat="40.272788"><ele>7.0</ele></trkpt>
            <trkpt lon="-124.361963" lat="40.272510"><ele>7.0</ele></trkpt>
            <trkpt lon="-124.362039" lat="40.272183"><ele>3.0</ele></trkpt>
            <trkpt lon="-124.362221" lat="40.271708"><ele>3.0</ele></trkpt>
            <trkpt lon="-124.362446" lat="40.271397"><ele>8.0</ele></trkpt>
            <trkpt lon="-124.362736" lat="40.271020"><ele>0.0</ele></trkpt>
            <trkpt lon="-124.362629" lat="40.270529"><ele>4.0</ele></trkpt>
            <trkpt lon="-124.362596" lat="40.270202"><ele>4.0</ele></trkpt>
            <trkpt lon="-124.362639" lat="40.269899"><ele>1.0</ele></trkpt>
            <trkpt lon="-124.362650" lat="40.269538"><ele>1.0</ele></trkpt>
            <trkpt lon="-124.362650" lat="40.269309"><ele>1.0</ele></trkpt>
            <trkpt lon="-124.362264" lat="40.268753"><ele>5.0</ele></trkpt>
            <trkpt lon="-124.362157" lat="40.268466"><ele>5.0</ele></trkpt>
            <trkpt lon="-124.362167" lat="40.268114"><ele>0.0</ele></trkpt>
            <trkpt lon="-124.362167" lat="40.267787"><ele>0.0</ele></trkpt>
            <trkpt lon="-124.362393" lat="40.267369"><ele>0.0</ele></trkpt>
            <trkpt lon="-124.362360" lat="40.266993"><ele>0.0</ele></trkpt>
            <trkpt lon="-124.362264" lat="40.266665"><ele>0.0</ele></trkpt>
            <trkpt lon="-124.362146" lat="40.266420"><ele>1.0</ele></trkpt>
            <trkpt lon="-124.362006" lat="40.265904"><ele>1.0</ele></trkpt>
            <trkpt lon="-124.361963" lat="40.265568"><ele>0.0</ele></trkpt>
            <trkpt lon="-124.362049" lat="40.264922"><ele>0.0</ele></trkpt>
            <trkpt lon="-124.362124" lat="40.264398"><ele>0.0</ele></trkpt>
            <trkpt lon="-124.362275" lat="40.263759"><ele>0.0</ele></trkpt>
            <trkpt lon="-124.362436" lat="40.263292"><ele>0.0</ele></trkpt>
            <trkpt lon="-124.362661" lat="40.262900"><ele>0.0</ele></trkpt>
            <trkpt lon="-124.362929" lat="40.262523"><ele>0.0</ele></trkpt>
            <trkpt lon="-124.363154" lat="40.262237"><ele>5.0</ele></trkpt>
            <trkpt lon="-124.363197" lat="40.261876"><ele>5.0</ele></trkpt>
            <trkpt lon="-124.363047" lat="40.261491"><ele>7.0</ele></trkpt>
            <trkpt lon="-124.362886" lat="40.261262"><ele>7.0</ele></trkpt>
            <trkpt lon="-124.362854" lat="40.260935"><ele>7.0</ele></trkpt>
            <trkpt lon="-124.362768" lat="40.260681"><ele>2.0</ele></trkpt>
            <trkpt lon="-124.362339" lat="40.260198"><ele>33.0</ele></trkpt>
            <trkpt lon="-124.361878" lat="40.259748"><ele>8.0</ele></trkpt>
            <trkpt lon="-124.361727" lat="40.259600"><ele>8.0</ele></trkpt>
            <trkpt lon="-124.361588" lat="40.259355"><ele>40.0</ele></trkpt>
            <trkpt lon="-124.361448" lat="40.259158"><ele>40.0</ele></trkpt>
            <trkpt lon="-124.361245" lat="40.258806"><ele>5.0</ele></trkpt>
            <trkpt lon="-124.360815" lat="40.258184"><ele>15.0</ele></trkpt>
            <trkpt lon="-124.360822" lat="40.258181"><ele>15.0</ele></trkpt>
            <trkpt lon="-124.360550" lat="40.257850"><ele>15.0</ele></trkpt>
            <trkpt lon="-124.360440" lat="40.257690"><ele>15.0</ele></trkpt>
            <trkpt lon="-124.360330" lat="40.257580"><ele>15.0</ele></trkpt>
            <trkpt lon="-124.359990" lat="40.257320"><ele>17.0</ele></trkpt>
            <trkpt lon="-124.359850" lat="40.257280"><ele>17.0</ele></trkpt>
            <trkpt lon="-124.358790" lat="40.256520"><ele>5.0</ele></trkpt>
            <trkpt lon="-124.358366" lat="40.256303"><ele>5.0</ele></trkpt>
            <trkpt lon="-124.358365" lat="40.256302"><ele>5.0</ele></trkpt>
            <trkpt lon="-124.358360" lat="40.256300"><ele>5.0</ele></trkpt>
            <trkpt lon="-124.357907" lat="40.256145"><ele>11.0</ele></trkpt>
            <trkpt lon="-124.357904" lat="40.256144"><ele>11.0</ele></trkpt>
            <trkpt lon="-124.357510" lat="40.256010"><ele>11.0</ele></trkpt>
            <trkpt lon="-124.357425" lat="40.255960"><ele>9.0</ele></trkpt>
            <trkpt lon="-124.357428" lat="40.255962"><ele>9.0</ele></trkpt>
            <trkpt lon="-124.357290" lat="40.255880"><ele>9.0</ele></trkpt>
            <trkpt lon="-124.357281" lat="40.255881"><ele>9.0</ele></trkpt>
            <trkpt lon="-124.357283" lat="40.255880"><ele>9.0</ele></trkpt>
            <trkpt lon="-124.357140" lat="40.255890"><ele>9.0</ele></trkpt>
            <trkpt lon="-124.357140" lat="40.255890"><ele>9.0</ele></trkpt>
            <trkpt lon="-124.357135" lat="40.255887"><ele>9.0</ele></trkpt>
            <trkpt lon="-124.357135" lat="40.255887"><ele>9.0</ele></trkpt>
            <trkpt lon="-124.356920" lat="40.255740"><ele>2.0</ele></trkpt>
            <trkpt lon="-124.356070" lat="40.255270"><ele>12.0</ele></trkpt>
            <trkpt lon="-124.355720" lat="40.255030"><ele>32.0</ele></trkpt>
            <trkpt lon="-124.354920" lat="40.254260"><ele>25.0</ele></trkpt>
            <trkpt lon="-124.354920" lat="40.254260"><ele>25.0</ele></trkpt>
            <trkpt lon="-124.354920" lat="40.254260"><ele>25.0</ele></trkpt>
            <trkpt lon="-124.354892" lat="40.254254"><ele>25.0</ele></trkpt>
            <trkpt lon="-124.354895" lat="40.254255"><ele>25.0</ele></trkpt>
            <trkpt lon="-124.354920" lat="40.254260"><ele>25.0</ele></trkpt>
            <trkpt lon="-124.354920" lat="40.254260"><ele>25.0</ele></trkpt>
            <trkpt lon="-124.354750" lat="40.253990"><ele>6.0</ele></trkpt>
            <trkpt lon="-124.354530" lat="40.253780"><ele>6.0</ele></trkpt>
            <trkpt lon="-124.354220" lat="40.253600"><ele>6.0</ele></trkpt>
            <trkpt lon="-124.353587" lat="40.252871"><ele>9.0</ele></trkpt>
            <trkpt lon="-124.353587" lat="40.252871"><ele>9.0</ele></trkpt>
            <trkpt lon="-124.353100" lat="40.252310"><ele>8.0</ele></trkpt>
            <trkpt lon="-124.352950" lat="40.252020"><ele>8.0</ele></trkpt>
            <trkpt lon="-124.352570" lat="40.251530"><ele>0.0</ele></trkpt>
            <trkpt lon="-124.352232" lat="40.251210"><ele>12.0</ele></trkpt>
            <trkpt lon="-124.352234" lat="40.251212"><ele>12.0</ele></trkpt>
            <trkpt lon="-124.352190" lat="40.251170"><ele>12.0</ele></trkpt>
            <trkpt lon="-124.351800" lat="40.250740"><ele>0.0</ele></trkpt>
            <trkpt lon="-124.351695" lat="40.250512"><ele>0.0</ele></trkpt>
            <trkpt lon="-124.351039" lat="40.249769"><ele>0.0</ele></trkpt>
            <trkpt lon="-124.350384" lat="40.249216"><ele>21.0</ele></trkpt>
            <trkpt lon="-124.350379" lat="40.249220"><ele>21.0</ele></trkpt>
            <trkpt lon="-124.350200" lat="40.249070"><ele>0.0</ele></trkpt>
            <trkpt lon="-124.349989" lat="40.248951"><ele>14.0</ele></trkpt>
            <trkpt lon="-124.349986" lat="40.248950"><ele>14.0</ele></trkpt>
            <trkpt lon="-124.349880" lat="40.248890"><ele>14.0</ele></trkpt>
            <trkpt lon="-124.349880" lat="40.248890"><ele>14.0</ele></trkpt>
            <trkpt lon="-124.349880" lat="40.248890"><ele>14.0</ele></trkpt>
            <trkpt lon="-124.349500" lat="40.248700"><ele>14.0</ele></trkpt>
            <trkpt lon="-124.348840" lat="40.248420"><ele>29.0</ele></trkpt>
            <trkpt lon="-124.348278" lat="40.248251"><ele>10.0</ele></trkpt>
            <trkpt lon="-124.348274" lat="40.248250"><ele>10.0</ele></trkpt>
            <trkpt lon="-124.348240" lat="40.248240"><ele>10.0</ele></trkpt>
            <trkpt lon="-124.348010" lat="40.248090"><ele>10.0</ele></trkpt>
            <trkpt lon="-124.347890" lat="40.248090"><ele>10.0</ele></trkpt>
            <trkpt lon="-124.347686" lat="40.247933"><ele>10.0</ele></trkpt>
            <trkpt lon="-124.347687" lat="40.247934"><ele>10.0</ele></trkpt>
            <trkpt lon="-124.347630" lat="40.247890"><ele>10.0</ele></trkpt>
            <trkpt lon="-124.347380" lat="40.247820"><ele>23.0</ele></trkpt>
            <trkpt lon="-124.347020" lat="40.247640"><ele>23.0</ele></trkpt>
            <trkpt lon="-124.346920" lat="40.247570"><ele>23.0</ele></trkpt>
            <trkpt lon="-124.346790" lat="40.247390"><ele>3.0</ele></trkpt>
            <trkpt lon="-124.346640" lat="40.247360"><ele>10.0</ele></trkpt>
            <trkpt lon="-124.346482" lat="40.247237"><ele>10.0</ele></trkpt>
            <trkpt lon="-124.346484" lat="40.247239"><ele>10.0</ele></trkpt>
            <trkpt lon="-124.346460" lat="40.247220"><ele>10.0</ele></trkpt>
            <trkpt lon="-124.346360" lat="40.247200"><ele>10.0</ele></trkpt>
            <trkpt lon="-124.346042" lat="40.246993"><ele>10.0</ele></trkpt>
            <trkpt lon="-124.346045" lat="40.246995"><ele>10.0</ele></trkpt>
            <trkpt lon="-124.345930" lat="40.246920"><ele>10.0</ele></trkpt>
            <trkpt lon="-124.345430" lat="40.246480"><ele>6.0</ele></trkpt>
            <trkpt lon="-124.345330" lat="40.246370"><ele>6.0</ele></trkpt>
            <trkpt lon="-124.345150" lat="40.246090"><ele>6.0</ele></trkpt>
            <trkpt lon="-124.344940" lat="40.245990"><ele>18.0</ele></trkpt>
            <trkpt lon="-124.344940" lat="40.245990"><ele>18.0</ele></trkpt>
            <trkpt lon="-124.344860" lat="40.245960"><ele>18.0</ele></trkpt>
            <trkpt lon="-124.344830" lat="40.245870"><ele>18.0</ele></trkpt>
            <trkpt lon="-124.344788" lat="40.245836"><ele>18.0</ele></trkpt>
            <trkpt lon="-124.344790" lat="40.245838"><ele>18.0</ele></trkpt>
            <trkpt lon="-124.344670" lat="40.245740"><ele>0.0</ele></trkpt>
            <trkpt lon="-124.343950" lat="40.245310"><ele>18.0</ele></trkpt>
            <trkpt lon="-124.343844" lat="40.245261"><ele>18.0</ele></trkpt>
            <trkpt lon="-124.343847" lat="40.245263"><ele>18.0</ele></trkpt>
            <trkpt lon="-124.343560" lat="40.245130"><ele>18.0</ele></trkpt>
            <trkpt lon="-124.343260" lat="40.244930"><ele>10.0</ele></trkpt>
            <trkpt lon="-124.343260" lat="40.244930"><ele>10.0</ele></trkpt>
            <trkpt lon="-124.343220" lat="40.244900"><ele>10.0</ele></trkpt>
            <trkpt lon="-124.343130" lat="40.244730"><ele>10.0</ele></trkpt>
            <trkpt lon="-124.342672" lat="40.244379"><ele>10.0</ele></trkpt>
            <trkpt lon="-124.342675" lat="40.244381"><ele>10.0</ele></trkpt>
            <trkpt lon="-124.342660" lat="40.244370"><ele>10.0</ele></trkpt>
            <trkpt lon="-124.342180" lat="40.244290"><ele>30.0</ele></trkpt>
            <trkpt lon="-124.342000" lat="40.244070"><ele>5.0</ele></trkpt>
            <trkpt lon="-124.341706" lat="40.243916"><ele>5.0</ele></trkpt>
            <trkpt lon="-124.341701" lat="40.243913"><ele>5.0</ele></trkpt>
            <trkpt lon="-124.341600" lat="40.243860"><ele>18.0</ele></trkpt>
            <trkpt lon="-124.341130" lat="40.243710"><ele>18.0</ele></trkpt>
            <trkpt lon="-124.340790" lat="40.243650"><ele>43.0</ele></trkpt>
            <trkpt lon="-124.340460" lat="40.243500"><ele>43.0</ele></trkpt>
            <trkpt lon="-124.340080" lat="40.243270"><ele>7.0</ele></trkpt>
            <trkpt lon="-124.339770" lat="40.243130"><ele>19.0</ele></trkpt>
            <trkpt lon="-124.339565" lat="40.243044"><ele>19.0</ele></trkpt>
            <trkpt lon="-124.339567" lat="40.243045"><ele>19.0</ele></trkpt>
            <trkpt lon="-124.339460" lat="40.243000"><ele>19.0</ele></trkpt>
            <trkpt lon="-124.339340" lat="40.243000"><ele>19.0</ele></trkpt>
            <trkpt lon="-124.338900" lat="40.242850"><ele>41.0</ele></trkpt>
            <trkpt lon="-124.338060" lat="40.242480"><ele>16.0</ele></trkpt>
            <trkpt lon="-124.337936" lat="40.242473"><ele>16.0</ele></trkpt>
            <trkpt lon="-124.337938" lat="40.242473"><ele>16.0</ele></trkpt>
            <trkpt lon="-124.337700" lat="40.242460"><ele>16.0</ele></trkpt>
            <trkpt lon="-124.337440" lat="40.242360"><ele>36.0</ele></trkpt>
            <trkpt lon="-124.336040" lat="40.242040"><ele>61.0</ele></trkpt>
            <trkpt lon="-124.335800" lat="40.241790"><ele>76.0</ele></trkpt>
            <trkpt lon="-124.335300" lat="40.241660"><ele>76.0</ele></trkpt>
            <trkpt lon="-124.334220" lat="40.241320"><ele>34.0</ele></trkpt>
            <trkpt lon="-124.333930" lat="40.241020"><ele>57.0</ele></trkpt>
            <trkpt lon="-124.333890" lat="40.240920"><ele>57.0</ele></trkpt>
            <trkpt lon="-124.333510" lat="40.240760"><ele>12.0</ele></trkpt>
            <trkpt lon="-124.333410" lat="40.240840"><ele>57.0</ele></trkpt>
            <trkpt lon="-124.333310" lat="40.240990"><ele>71.0</ele></trkpt>
            <trkpt lon="-124.333204" lat="40.241050"><ele>71.0</ele></trkpt>
            <trkpt lon="-124.333204" lat="40.241050"><ele>71.0</ele></trkpt>
            <trkpt lon="-124.333150" lat="40.241080"><ele>71.0</ele></trkpt>
            <trkpt lon="-124.333040" lat="40.241200"><ele>71.0</ele></trkpt>
            <trkpt lon="-124.332930" lat="40.241270"><ele>71.0</ele></trkpt>
            <trkpt lon="-124.332842" lat="40.240975"><ele>71.0</ele></trkpt>
            <trkpt lon="-124.332842" lat="40.240977"><ele>71.0</ele></trkpt>
            <trkpt lon="-124.332840" lat="40.240970"><ele>71.0</ele></trkpt>
            <trkpt lon="-124.332730" lat="40.240810"><ele>30.0</ele></trkpt>
            <trkpt lon="-124.332750" lat="40.240670"><ele>30.0</ele></trkpt>
            <trkpt lon="-124.332670" lat="40.240570"><ele>30.0</ele></trkpt>
            <trkpt lon="-124.332490" lat="40.240230"><ele>47.0</ele></trkpt>
            <trkpt lon="-124.332437" lat="40.240168"><ele>47.0</ele></trkpt>
            <trkpt lon="-124.332434" lat="40.240164"><ele>47.0</ele></trkpt>
            <trkpt lon="-124.332430" lat="40.240160"><ele>47.0</ele></trkpt>
            <trkpt lon="-124.332340" lat="40.240150"><ele>47.0</ele></trkpt>
            <trkpt lon="-124.332140" lat="40.240190"><ele>47.0</ele></trkpt>
            <trkpt lon="-124.331930" lat="40.240190"><ele>47.0</ele></trkpt>
            <trkpt lon="-124.331790" lat="40.240140"><ele>47.0</ele></trkpt>
            <trkpt lon="-124.331720" lat="40.240070"><ele>47.0</ele></trkpt>
            <trkpt lon="-124.331492" lat="40.240160"><ele>51.0</ele></trkpt>
            <trkpt lon="-124.331485" lat="40.240162"><ele>51.0</ele></trkpt>
            <trkpt lon="-124.331440" lat="40.240180"><ele>51.0</ele></trkpt>
            <trkpt lon="-124.331420" lat="40.240160"><ele>51.0</ele></trkpt>
            <trkpt lon="-124.331510" lat="40.239950"><ele>16.0</ele></trkpt>
            <trkpt lon="-124.331520" lat="40.239810"><ele>16.0</ele></trkpt>
            <trkpt lon="-124.331440" lat="40.239770"><ele>16.0</ele></trkpt>
            <trkpt lon="-124.331300" lat="40.239780"><ele>16.0</ele></trkpt>
            <trkpt lon="-124.330860" lat="40.239720"><ele>16.0</ele></trkpt>
            <trkpt lon="-124.330480" lat="40.239520"><ele>27.0</ele></trkpt>
            <trkpt lon="-124.330114" lat="40.239276"><ele>27.0</ele></trkpt>
            <trkpt lon="-124.330115" lat="40.239276"><ele>27.0</ele></trkpt>
            <trkpt lon="-124.329760" lat="40.239040"><ele>9.0</ele></trkpt>
            <trkpt lon="-124.328880" lat="40.238132"><ele>8.0</ele></trkpt>
            <trkpt lon="-124.328881" lat="40.238133"><ele>8.0</ele></trkpt>
            <trkpt lon="-124.328820" lat="40.238070"><ele>8.0</ele></trkpt>
            <trkpt lon="-124.328650" lat="40.237950"><ele>8.0</ele></trkpt>
            <trkpt lon="-124.328110" lat="40.237670"><ele>33.0</ele></trkpt>
            <trkpt lon="-124.327630" lat="40.237470"><ele>0.0</ele></trkpt>
            <trkpt lon="-124.327273" lat="40.237216"><ele>11.0</ele></trkpt>
            <trkpt lon="-124.327126" lat="40.237040"><ele>11.0</ele></trkpt>
            <trkpt lon="-124.327053" lat="40.236977"><ele>11.0</ele></trkpt>
            <trkpt lon="-124.326962" lat="40.236966"><ele>11.0</ele></trkpt>
            <trkpt lon="-124.326906" lat="40.236956"><ele>11.0</ele></trkpt>
            <trkpt lon="-124.326907" lat="40.236955"><ele>11.0</ele></trkpt>
            <trkpt lon="-124.326450" lat="40.236630"><ele>5.0</ele></trkpt>
            <trkpt lon="-124.326396" lat="40.236553"><ele>5.0</ele></trkpt>
            <trkpt lon="-124.326396" lat="40.236554"><ele>5.0</ele></trkpt>
            <trkpt lon="-124.325990" lat="40.235980"><ele>5.0</ele></trkpt>
            <trkpt lon="-124.325700" lat="40.235480"><ele>8.0</ele></trkpt>
            <trkpt lon="-124.325667" lat="40.235398"><ele>8.0</ele></trkpt>
            <trkpt lon="-124.325668" lat="40.235399"><ele>8.0</ele></trkpt>
            <trkpt lon="-124.325620" lat="40.235280"><ele>8.0</ele></trkpt>
            <trkpt lon="-124.325534" lat="40.234805"><ele>0.0</ele></trkpt>
            <trkpt lon="-124.325534" lat="40.234806"><ele>0.0</ele></trkpt>
            <trkpt lon="-124.325490" lat="40.234560"><ele>0.0</ele></trkpt>
            <trkpt lon="-124.325400" lat="40.234490"><ele>0.0</ele></trkpt>
            <trkpt lon="-124.325319" lat="40.234498"><ele>0.0</ele></trkpt>
            <trkpt lon="-124.325320" lat="40.234498"><ele>0.0</ele></trkpt>
            <trkpt lon="-124.325090" lat="40.234520"><ele>0.0</ele></trkpt>
            <trkpt lon="-124.325030" lat="40.234470"><ele>0.0</ele></trkpt>
            <trkpt lon="-124.325090" lat="40.234420"><ele>0.0</ele></trkpt>
            <trkpt lon="-124.325090" lat="40.234412"><ele>0.0</ele></trkpt>
            <trkpt lon="-124.325090" lat="40.234413"><ele>0.0</ele></trkpt>
            <trkpt lon="-124.325090" lat="40.234390"><ele>0.0</ele></trkpt>
            <trkpt lon="-124.324950" lat="40.234400"><ele>25.0</ele></trkpt>
            <trkpt lon="-124.324910" lat="40.234350"><ele>25.0</ele></trkpt>
            <trkpt lon="-124.324840" lat="40.234170"><ele>25.0</ele></trkpt>
            <trkpt lon="-124.324755" lat="40.234057"><ele>18.0</ele></trkpt>
            <trkpt lon="-124.324756" lat="40.234058"><ele>18.0</ele></trkpt>
            <trkpt lon="-124.324750" lat="40.234050"><ele>18.0</ele></trkpt>
            <trkpt lon="-124.324750" lat="40.233940"><ele>18.0</ele></trkpt>
            <trkpt lon="-124.324820" lat="40.233860"><ele>18.0</ele></trkpt>
            <trkpt lon="-124.324770" lat="40.233770"><ele>18.0</ele></trkpt>
            <trkpt lon="-124.324560" lat="40.233620"><ele>18.0</ele></trkpt>
            <trkpt lon="-124.324530" lat="40.233440"><ele>18.0</ele></trkpt>
            <trkpt lon="-124.324433" lat="40.233328"><ele>18.0</ele></trkpt>
            <trkpt lon="-124.324434" lat="40.233329"><ele>18.0</ele></trkpt>
            <trkpt lon="-124.324340" lat="40.233220"><ele>16.0</ele></trkpt>
            <trkpt lon="-124.324260" lat="40.233090"><ele>16.0</ele></trkpt>
            <trkpt lon="-124.324193" lat="40.233030"><ele>16.0</ele></trkpt>
            <trkpt lon="-124.324195" lat="40.233031"><ele>16.0</ele></trkpt>
            <trkpt lon="-124.324160" lat="40.233000"><ele>44.0</ele></trkpt>
            <trkpt lon="-124.324080" lat="40.232990"><ele>44.0</ele></trkpt>
            <trkpt lon="-124.324000" lat="40.232925"><ele>44.0</ele></trkpt>
            <trkpt lon="-124.323999" lat="40.232924"><ele>44.0</ele></trkpt>
            <trkpt lon="-124.323970" lat="40.232900"><ele>44.0</ele></trkpt>
            <trkpt lon="-124.323880" lat="40.232670"><ele>44.0</ele></trkpt>
            <trkpt lon="-124.323670" lat="40.232450"><ele>18.0</ele></trkpt>
            <trkpt lon="-124.323580" lat="40.232210"><ele>18.0</ele></trkpt>
            <trkpt lon="-124.323528" lat="40.232165"><ele>18.0</ele></trkpt>
            <trkpt lon="-124.323528" lat="40.232165"><ele>18.0</ele></trkpt>
            <trkpt lon="-124.323430" lat="40.232080"><ele>18.0</ele></trkpt>
            <trkpt lon="-124.323270" lat="40.232010"><ele>41.0</ele></trkpt>
            <trkpt lon="-124.323060" lat="40.231760"><ele>41.0</ele></trkpt>
            <trkpt lon="-124.322990" lat="40.231450"><ele>23.0</ele></trkpt>
            <trkpt lon="-124.322750" lat="40.231230"><ele>23.0</ele></trkpt>
            <trkpt lon="-124.322720" lat="40.231050"><ele>23.0</ele></trkpt>
            <trkpt lon="-124.322720" lat="40.231050"><ele>23.0</ele></trkpt>
            <trkpt lon="-124.322720" lat="40.231050"><ele>23.0</ele></trkpt>
            <trkpt lon="-124.322870" lat="40.231080"><ele>23.0</ele></trkpt>
            <trkpt lon="-124.323040" lat="40.231260"><ele>23.0</ele></trkpt>
            <trkpt lon="-124.323140" lat="40.231310"><ele>23.0</ele></trkpt>
            <trkpt lon="-124.323390" lat="40.231510"><ele>3.0</ele></trkpt>
            <trkpt lon="-124.323390" lat="40.231510"><ele>3.0</ele></trkpt>
            <trkpt lon="-124.323390" lat="40.231510"><ele>3.0</ele></trkpt>
            <trkpt lon="-124.323395" lat="40.231515"><ele>3.0</ele></trkpt>
            <trkpt lon="-124.323396" lat="40.231516"><ele>3.0</ele></trkpt>
            <trkpt lon="-124.323390" lat="40.231510"><ele>3.0</ele></trkpt>
            <trkpt lon="-124.323390" lat="40.231510"><ele>3.0</ele></trkpt>
            <trkpt lon="-124.323598" lat="40.231579"><ele>3.0</ele></trkpt>
            <trkpt lon="-124.323603" lat="40.231581"><ele>3.0</ele></trkpt>
            <trkpt lon="-124.323660" lat="40.231600"><ele>3.0</ele></trkpt>
            <trkpt lon="-124.323760" lat="40.231580"><ele>3.0</ele></trkpt>
            <trkpt lon="-124.323830" lat="40.231530"><ele>3.0</ele></trkpt>
            <trkpt lon="-124.323830" lat="40.231440"><ele>3.0</ele></trkpt>
            <trkpt lon="-124.323830" lat="40.231440"><ele>3.0</ele></trkpt>
            <trkpt lon="-124.323830" lat="40.231440"><ele>3.0</ele></trkpt>
            <trkpt lon="-124.323816" lat="40.231413"><ele>3.0</ele></trkpt>
            <trkpt lon="-124.323816" lat="40.231413"><ele>3.0</ele></trkpt>
            <trkpt lon="-124.323700" lat="40.231190"><ele>3.0</ele></trkpt>
            <trkpt lon="-124.323536" lat="40.230735"><ele>0.0</ele></trkpt>
            <trkpt lon="-124.323537" lat="40.230736"><ele>0.0</ele></trkpt>
            <trkpt lon="-124.323520" lat="40.230690"><ele>0.0</ele></trkpt>
            <trkpt lon="-124.323440" lat="40.230370"><ele>0.0</ele></trkpt>
            <trkpt lon="-124.323380" lat="40.229820"><ele>0.0</ele></trkpt>
            <trkpt lon="-124.323367" lat="40.229803"><ele>0.0</ele></trkpt>
            <trkpt lon="-124.322434" lat="40.228923"><ele>9.0</ele></trkpt>
            <trkpt lon="-124.321868" lat="40.228116"><ele>0.0</ele></trkpt>
            <trkpt lon="-124.321872" lat="40.228115"><ele>0.0</ele></trkpt>
            <trkpt lon="-124.321840" lat="40.228070"><ele>0.0</ele></trkpt>
            <trkpt lon="-124.321380" lat="40.227710"><ele>13.0</ele></trkpt>
            <trkpt lon="-124.321380" lat="40.227710"><ele>13.0</ele></trkpt>
            <trkpt lon="-124.321380" lat="40.227710"><ele>13.0</ele></trkpt>
            <trkpt lon="-124.321290" lat="40.227610"><ele>13.0</ele></trkpt>
            <trkpt lon="-124.321290" lat="40.227610"><ele>13.0</ele></trkpt>
            <trkpt lon="-124.320927" lat="40.227201"><ele>0.0</ele></trkpt>
            <trkpt lon="-124.320927" lat="40.227202"><ele>0.0</ele></trkpt>
            <trkpt lon="-124.320302" lat="40.226499"><ele>0.0</ele></trkpt>
            <trkpt lon="-124.320303" lat="40.226499"><ele>0.0</ele></trkpt>
            <trkpt lon="-124.320250" lat="40.226440"><ele>0.0</ele></trkpt>
            <trkpt lon="-124.319613" lat="40.226081"><ele>23.0</ele></trkpt>
            <trkpt lon="-124.319611" lat="40.226080"><ele>23.0</ele></trkpt>
            <trkpt lon="-124.319380" lat="40.225950"><ele>23.0</ele></trkpt>
            <trkpt lon="-124.319217" lat="40.225847"><ele>23.0</ele></trkpt>
            <trkpt lon="-124.319219" lat="40.225848"><ele>23.0</ele></trkpt>
            <trkpt lon="-124.318489" lat="40.225387"><ele>12.0</ele></trkpt>
            <trkpt lon="-124.318490" lat="40.225388"><ele>12.0</ele></trkpt>
            <trkpt lon="-124.317992" lat="40.225074"><ele>39.0</ele></trkpt>
            <trkpt lon="-124.317993" lat="40.225074"><ele>39.0</ele></trkpt>
            <trkpt lon="-124.317860" lat="40.224990"><ele>0.0</ele></trkpt>
            <trkpt lon="-124.317770" lat="40.224870"><ele>0.0</ele></trkpt>
            <trkpt lon="-124.317582" lat="40.224806"><ele>0.0</ele></trkpt>
            <trkpt lon="-124.317583" lat="40.224806"><ele>0.0</ele></trkpt>
            <trkpt lon="-124.317420" lat="40.224750"><ele>18.0</ele></trkpt>
            <trkpt lon="-124.316681" lat="40.224316"><ele>18.0</ele></trkpt>
            <trkpt lon="-124.316680" lat="40.224316"><ele>18.0</ele></trkpt>
            <trkpt lon="-124.316210" lat="40.224040"><ele>5.0</ele></trkpt>
            <trkpt lon="-124.315484" lat="40.223513"><ele>25.0</ele></trkpt>
            <trkpt lon="-124.315485" lat="40.223514"><ele>25.0</ele></trkpt>
            <trkpt lon="-124.315300" lat="40.223380"><ele>25.0</ele></trkpt>
            <trkpt lon="-124.314420" lat="40.222810"><ele>12.0</ele></trkpt>
            <trkpt lon="-124.314414" lat="40.222807"><ele>12.0</ele></trkpt>
            <trkpt lon="-124.314414" lat="40.222807"><ele>12.0</ele></trkpt>
            <trkpt lon="-124.313618" lat="40.222327"><ele>0.0</ele></trkpt>
            <trkpt lon="-124.313014" lat="40.221807"><ele>27.0</ele></trkpt>
            <trkpt lon="-124.312749" lat="40.221608"><ele>0.0</ele></trkpt>
            <trkpt lon="-124.312430" lat="40.221383"><ele>18.0</ele></trkpt>
            <trkpt lon="-124.312231" lat="40.221285"><ele>18.0</ele></trkpt>
            <trkpt lon="-124.312046" lat="40.221107"><ele>18.0</ele></trkpt>
            <trkpt lon="-124.311920" lat="40.221043"><ele>18.0</ele></trkpt>
            <trkpt lon="-124.311732" lat="40.220830"><ele>18.0</ele></trkpt>
            <trkpt lon="-124.311220" lat="40.220289"><ele>14.0</ele></trkpt>
            <trkpt lon="-124.311218" lat="40.220290"><ele>14.0</ele></trkpt>
            <trkpt lon="-124.311160" lat="40.220180"><ele>14.0</ele></trkpt>
            <trkpt lon="-124.310700" lat="40.219680"><ele>15.0</ele></trkpt>
            <trkpt lon="-124.310434" lat="40.219480"><ele>15.0</ele></trkpt>
            <trkpt lon="-124.310433" lat="40.219479"><ele>15.0</ele></trkpt>
            <trkpt lon="-124.310145" lat="40.219263"><ele>15.0</ele></trkpt>
            <trkpt lon="-124.310146" lat="40.219264"><ele>15.0</ele></trkpt>
            <trkpt lon="-124.309394" lat="40.218698"><ele>2.0</ele></trkpt>
            <trkpt lon="-124.309395" lat="40.218699"><ele>2.0</ele></trkpt>
            <trkpt lon="-124.309210" lat="40.218560"><ele>2.0</ele></trkpt>
            <trkpt lon="-124.309094" lat="40.218444"><ele>12.0</ele></trkpt>
            <trkpt lon="-124.309093" lat="40.218443"><ele>12.0</ele></trkpt>
            <trkpt lon="-124.308740" lat="40.218090"><ele>5.0</ele></trkpt>
            <trkpt lon="-124.308152" lat="40.217571"><ele>44.0</ele></trkpt>
            <trkpt lon="-124.308153" lat="40.217572"><ele>44.0</ele></trkpt>
            <trkpt lon="-124.307214" lat="40.216744"><ele>39.0</ele></trkpt>
            <trkpt lon="-124.306207" lat="40.216203"><ele>25.0</ele></trkpt>
            <trkpt lon="-124.305928" lat="40.216089"><ele>25.0</ele></trkpt>
            <trkpt lon="-124.305932" lat="40.216084"><ele>25.0</ele></trkpt>
            <trkpt lon="-124.305330" lat="40.215800"><ele>6.0</ele></trkpt>
            <trkpt lon="-124.305316" lat="40.215789"><ele>6.0</ele></trkpt>
            <trkpt lon="-124.305317" lat="40.215789"><ele>6.0</ele></trkpt>
            <trkpt lon="-124.304866" lat="40.215429"><ele>28.0</ele></trkpt>
            <trkpt lon="-124.304867" lat="40.215430"><ele>28.0</ele></trkpt>
            <trkpt lon="-124.304746" lat="40.215333"><ele>28.0</ele></trkpt>
            <trkpt lon="-124.304744" lat="40.215332"><ele>28.0</ele></trkpt>
            <trkpt lon="-124.304530" lat="40.215160"><ele>28.0</ele></trkpt>
            <trkpt lon="-124.304147" lat="40.214698"><ele>20.0</ele></trkpt>
            <trkpt lon="-124.304150" lat="40.214700"><ele>20.0</ele></trkpt>
            <trkpt lon="-124.304050" lat="40.214580"><ele>20.0</ele></trkpt>
            <trkpt lon="-124.303710" lat="40.214070"><ele>0.0</ele></trkpt>
            <trkpt lon="-124.302901" lat="40.213599"><ele>35.0</ele></trkpt>
            <trkpt lon="-124.302902" lat="40.213600"><ele>35.0</ele></trkpt>
            <trkpt lon="-124.302800" lat="40.213540"><ele>35.0</ele></trkpt>
            <trkpt lon="-124.302175" lat="40.213228"><ele>17.0</ele></trkpt>
            <trkpt lon="-124.302172" lat="40.213226"><ele>17.0</ele></trkpt>
            <trkpt lon="-124.301860" lat="40.213070"><ele>17.0</ele></trkpt>
            <trkpt lon="-124.301116" lat="40.212632"><ele>43.0</ele></trkpt>
            <trkpt lon="-124.301116" lat="40.212632"><ele>43.0</ele></trkpt>
            <trkpt lon="-124.300790" lat="40.212440"><ele>21.0</ele></trkpt>
            <trkpt lon="-124.300790" lat="40.212440"><ele>21.0</ele></trkpt>
            <trkpt lon="-124.300008" lat="40.212041"><ele>21.0</ele></trkpt>
            <trkpt lon="-124.300008" lat="40.212041"><ele>21.0</ele></trkpt>
            <trkpt lon="-124.299407" lat="40.211734"><ele>48.0</ele></trkpt>
            <trkpt lon="-124.299209" lat="40.211695"><ele>48.0</ele></trkpt>
            <trkpt lon="-124.298973" lat="40.211575"><ele>24.0</ele></trkpt>
            <trkpt lon="-124.298815" lat="40.211466"><ele>24.0</ele></trkpt>
            <trkpt lon="-124.298732" lat="40.211413"><ele>24.0</ele></trkpt>
            <trkpt lon="-124.298190" lat="40.210882"><ele>43.0</ele></trkpt>
            <trkpt lon="-124.297962" lat="40.210655"><ele>7.0</ele></trkpt>
            <trkpt lon="-124.297809" lat="40.210554"><ele>7.0</ele></trkpt>
            <trkpt lon="-124.297683" lat="40.210458"><ele>7.0</ele></trkpt>
            <trkpt lon="-124.297251" lat="40.210077"><ele>42.0</ele></trkpt>
            <trkpt lon="-124.296731" lat="40.209663"><ele>0.0</ele></trkpt>
            <trkpt lon="-124.296562" lat="40.209543"><ele>30.0</ele></trkpt>
            <trkpt lon="-124.295819" lat="40.208910"><ele>13.0</ele></trkpt>
            <trkpt lon="-124.295580" lat="40.208721"><ele>13.0</ele></trkpt>
            <trkpt lon="-124.295197" lat="40.208340"><ele>13.0</ele></trkpt>
            <trkpt lon="-124.294993" lat="40.208156"><ele>11.0</ele></trkpt>
            <trkpt lon="-124.294875" lat="40.208053"><ele>11.0</ele></trkpt>
            <trkpt lon="-124.294871" lat="40.208055"><ele>11.0</ele></trkpt>
            <trkpt lon="-124.294460" lat="40.207640"><ele>11.0</ele></trkpt>
            <trkpt lon="-124.294164" lat="40.207220"><ele>14.0</ele></trkpt>
            <trkpt lon="-124.294165" lat="40.207221"><ele>14.0</ele></trkpt>
            <trkpt lon="-124.293960" lat="40.206930"><ele>14.0</ele></trkpt>
            <trkpt lon="-124.293958" lat="40.206929"><ele>14.0</ele></trkpt>
            <trkpt lon="-124.293959" lat="40.206930"><ele>14.0</ele></trkpt>
            <trkpt lon="-124.292857" lat="40.206325"><ele>8.0</ele></trkpt>
            <trkpt lon="-124.292857" lat="40.206324"><ele>8.0</ele></trkpt>
            <trkpt lon="-124.292053" lat="40.205883"><ele>23.0</ele></trkpt>
            <trkpt lon="-124.292042" lat="40.205886"><ele>23.0</ele></trkpt>
            <trkpt lon="-124.291940" lat="40.205878"><ele>23.0</ele></trkpt>
            <trkpt lon="-124.291879" lat="40.205839"><ele>23.0</ele></trkpt>
            <trkpt lon="-124.291828" lat="40.205819"><ele>0.0</ele></trkpt>
            <trkpt lon="-124.291817" lat="40.205804"><ele>0.0</ele></trkpt>
            <trkpt lon="-124.291753" lat="40.205798"><ele>0.0</ele></trkpt>
            <trkpt lon="-124.291672" lat="40.205765"><ele>0.0</ele></trkpt>
            <trkpt lon="-124.291554" lat="40.205718"><ele>22.0</ele></trkpt>
            <trkpt lon="-124.291441" lat="40.205653"><ele>22.0</ele></trkpt>
            <trkpt lon="-124.291412" lat="40.205599"><ele>22.0</ele></trkpt>
            <trkpt lon="-124.291369" lat="40.205548"><ele>22.0</ele></trkpt>
            <trkpt lon="-124.291294" lat="40.205462"><ele>22.0</ele></trkpt>
            <trkpt lon="-124.291219" lat="40.205411"><ele>22.0</ele></trkpt>
            <trkpt lon="-124.291130" lat="40.205323"><ele>22.0</ele></trkpt>
            <trkpt lon="-124.291047" lat="40.205225"><ele>22.0</ele></trkpt>
            <trkpt lon="-124.290977" lat="40.205141"><ele>22.0</ele></trkpt>
            <trkpt lon="-124.290790" lat="40.204880"><ele>17.0</ele></trkpt>
            <trkpt lon="-124.290656" lat="40.204702"><ele>17.0</ele></trkpt>
            <trkpt lon="-124.290575" lat="40.204616"><ele>17.0</ele></trkpt>
            <trkpt lon="-124.290527" lat="40.204575"><ele>17.0</ele></trkpt>
            <trkpt lon="-124.290460" lat="40.204520"><ele>17.0</ele></trkpt>
            <trkpt lon="-124.290395" lat="40.204370"><ele>17.0</ele></trkpt>
            <trkpt lon="-124.290336" lat="40.204299"><ele>17.0</ele></trkpt>
            <trkpt lon="-124.290251" lat="40.204178"><ele>17.0</ele></trkpt>
            <trkpt lon="-124.290122" lat="40.203998"><ele>0.0</ele></trkpt>
            <trkpt lon="-124.289988" lat="40.203830"><ele>27.0</ele></trkpt>
            <trkpt lon="-124.289888" lat="40.203700"><ele>27.0</ele></trkpt>
            <trkpt lon="-124.289760" lat="40.203633"><ele>27.0</ele></trkpt>
            <trkpt lon="-124.289593" lat="40.203573"><ele>27.0</ele></trkpt>
            <trkpt lon="-124.289331" lat="40.203483"><ele>27.0</ele></trkpt>
            <trkpt lon="-124.288955" lat="40.203305"><ele>15.0</ele></trkpt>
            <trkpt lon="-124.288791" lat="40.203176"><ele>15.0</ele></trkpt>
            <trkpt lon="-124.287981" lat="40.202758"><ele>39.0</ele></trkpt>
            <trkpt lon="-124.287083" lat="40.202561"><ele>58.0</ele></trkpt>
            <trkpt lon="-124.286678" lat="40.202512"><ele>58.0</ele></trkpt>
            <trkpt lon="-124.286208" lat="40.202416"><ele>12.0</ele></trkpt>
            <trkpt lon="-124.285854" lat="40.202244"><ele>12.0</ele></trkpt>
            <trkpt lon="-124.285723" lat="40.202170"><ele>34.0</ele></trkpt>
            <trkpt lon="-124.285176" lat="40.201814"><ele>34.0</ele></trkpt>
            <trkpt lon="-124.284795" lat="40.201623"><ele>15.0</ele></trkpt>
            <trkpt lon="-124.284299" lat="40.201412"><ele>15.0</ele></trkpt>
            <trkpt lon="-124.283939" lat="40.201242"><ele>34.0</ele></trkpt>
            <trkpt lon="-124.283660" lat="40.201074"><ele>34.0</ele></trkpt>
            <trkpt lon="-124.283446" lat="40.200947"><ele>34.0</ele></trkpt>
            <trkpt lon="-124.283170" lat="40.200714"><ele>7.0</ele></trkpt>
            <trkpt lon="-124.282936" lat="40.200583"><ele>7.0</ele></trkpt>
            <trkpt lon="-124.282891" lat="40.200535"><ele>7.0</ele></trkpt>
            <trkpt lon="-124.282891" lat="40.200530"><ele>7.0</ele></trkpt>
            <trkpt lon="-124.282960" lat="40.200530"><ele>7.0</ele></trkpt>
            <trkpt lon="-124.282721" lat="40.200539"><ele>7.0</ele></trkpt>
            <trkpt lon="-124.282471" lat="40.200633"><ele>10.0</ele></trkpt>
            <trkpt lon="-124.282347" lat="40.200465"><ele>10.0</ele></trkpt>
            <trkpt lon="-124.282309" lat="40.200459"><ele>10.0</ele></trkpt>
            <trkpt lon="-124.282105" lat="40.200428"><ele>10.0</ele></trkpt>
            <trkpt lon="-124.282025" lat="40.200439"><ele>10.0</ele></trkpt>
            <trkpt lon="-124.281876" lat="40.200372"><ele>10.0</ele></trkpt>
            <trkpt lon="-124.281647" lat="40.200259"><ele>23.0</ele></trkpt>
            <trkpt lon="-124.281578" lat="40.200236"><ele>23.0</ele></trkpt>
            <trkpt lon="-124.281531" lat="40.200217"><ele>23.0</ele></trkpt>
            <trkpt lon="-124.281493" lat="40.200212"><ele>23.0</ele></trkpt>
            <trkpt lon="-124.281473" lat="40.200187"><ele>23.0</ele></trkpt>
            <trkpt lon="-124.281433" lat="40.200175"><ele>23.0</ele></trkpt>
            <trkpt lon="-124.281401" lat="40.200162"><ele>23.0</ele></trkpt>
            <trkpt lon="-124.281354" lat="40.200157"><ele>23.0</ele></trkpt>
            <trkpt lon="-124.281291" lat="40.200130"><ele>23.0</ele></trkpt>
            <trkpt lon="-124.281177" lat="40.200103"><ele>23.0</ele></trkpt>
            <trkpt lon="-124.280955" lat="40.200047"><ele>23.0</ele></trkpt>
            <trkpt lon="-124.280586" lat="40.199942"><ele>17.0</ele></trkpt>
            <trkpt lon="-124.280444" lat="40.199895"><ele>17.0</ele></trkpt>
            <trkpt lon="-124.280391" lat="40.199871"><ele>17.0</ele></trkpt>
            <trkpt lon="-124.280391" lat="40.199872"><ele>17.0</ele></trkpt>
            <trkpt lon="-124.280030" lat="40.199710"><ele>17.0</ele></trkpt>
            <trkpt lon="-124.279836" lat="40.199668"><ele>26.0</ele></trkpt>
            <trkpt lon="-124.279835" lat="40.199667"><ele>26.0</ele></trkpt>
            <trkpt lon="-124.279710" lat="40.199640"><ele>26.0</ele></trkpt>
            <trkpt lon="-124.278970" lat="40.199567"><ele>27.0</ele></trkpt>
            <trkpt lon="-124.278971" lat="40.199567"><ele>27.0</ele></trkpt>
            <trkpt lon="-124.278900" lat="40.199560"><ele>27.0</ele></trkpt>
            <trkpt lon="-124.277727" lat="40.199387"><ele>25.0</ele></trkpt>
            <trkpt lon="-124.277729" lat="40.199387"><ele>25.0</ele></trkpt>
            <trkpt lon="-124.277340" lat="40.199330"><ele>24.0</ele></trkpt>
            <trkpt lon="-124.277340" lat="40.199330"><ele>24.0</ele></trkpt>
            <trkpt lon="-124.276864" lat="40.199239"><ele>24.0</ele></trkpt>
            <trkpt lon="-124.276185" lat="40.199033"><ele>7.0</ele></trkpt>
            <trkpt lon="-124.275469" lat="40.198719"><ele>9.0</ele></trkpt>
            <trkpt lon="-124.275467" lat="40.198721"><ele>9.0</ele></trkpt>
            <trkpt lon="-124.275270" lat="40.198630"><ele>9.0</ele></trkpt>
            <trkpt lon="-124.274377" lat="40.198126"><ele>8.0</ele></trkpt>
            <trkpt lon="-124.274378" lat="40.198127"><ele>8.0</ele></trkpt>
            <trkpt lon="-124.273917" lat="40.197867"><ele>10.0</ele></trkpt>
            <trkpt lon="-124.273613" lat="40.197705"><ele>10.0</ele></trkpt>
            <trkpt lon="-124.273551" lat="40.197670"><ele>10.0</ele></trkpt>
            <trkpt lon="-124.273557" lat="40.197664"><ele>10.0</ele></trkpt>
            <trkpt lon="-124.273550" lat="40.197660"><ele>10.0</ele></trkpt>
            <trkpt lon="-124.273550" lat="40.197660"><ele>10.0</ele></trkpt>
            <trkpt lon="-124.273020" lat="40.197390"><ele>6.0</ele></trkpt>
            <trkpt lon="-124.272921" lat="40.197300"><ele>6.0</ele></trkpt>
            <trkpt lon="-124.272919" lat="40.197299"><ele>6.0</ele></trkpt>
            <trkpt lon="-124.272511" lat="40.196929"><ele>6.0</ele></trkpt>
            <trkpt lon="-124.272512" lat="40.196930"><ele>6.0</ele></trkpt>
            <trkpt lon="-124.272490" lat="40.196910"><ele>17.0</ele></trkpt>
            <trkpt lon="-124.271220" lat="40.196310"><ele>12.0</ele></trkpt>
            <trkpt lon="-124.271212" lat="40.196305"><ele>12.0</ele></trkpt>
            <trkpt lon="-124.271213" lat="40.196305"><ele>12.0</ele></trkpt>
            <trkpt lon="-124.270980" lat="40.196150"><ele>12.0</ele></trkpt>
            <trkpt lon="-124.270590" lat="40.196040"><ele>34.0</ele></trkpt>
            <trkpt lon="-124.270390" lat="40.196000"><ele>34.0</ele></trkpt>
            <trkpt lon="-124.270250" lat="40.195660"><ele>6.0</ele></trkpt>
            <trkpt lon="-124.270250" lat="40.195660"><ele>6.0</ele></trkpt>
            <trkpt lon="-124.270245" lat="40.195638"><ele>6.0</ele></trkpt>
            <trkpt lon="-124.270245" lat="40.195638"><ele>6.0</ele></trkpt>
            <trkpt lon="-124.270210" lat="40.195480"><ele>6.0</ele></trkpt>
            <trkpt lon="-124.270070" lat="40.195360"><ele>6.0</ele></trkpt>
            <trkpt lon="-124.270000" lat="40.195260"><ele>24.0</ele></trkpt>
            <trkpt lon="-124.269740" lat="40.194770"><ele>8.0</ele></trkpt>
            <trkpt lon="-124.269630" lat="40.194640"><ele>8.0</ele></trkpt>
            <trkpt lon="-124.269520" lat="40.194570"><ele>8.0</ele></trkpt>
            <trkpt lon="-124.269240" lat="40.193930"><ele>0.0</ele></trkpt>
            <trkpt lon="-124.269110" lat="40.193830"><ele>13.0</ele></trkpt>
            <trkpt lon="-124.269010" lat="40.193800"><ele>13.0</ele></trkpt>
            <trkpt lon="-124.268830" lat="40.193830"><ele>13.0</ele></trkpt>
            <trkpt lon="-124.268814" lat="40.193823"><ele>13.0</ele></trkpt>
            <trkpt lon="-124.268813" lat="40.193823"><ele>13.0</ele></trkpt>
            <trkpt lon="-124.268760" lat="40.193800"><ele>13.0</ele></trkpt>
            <trkpt lon="-124.268730" lat="40.193750"><ele>13.0</ele></trkpt>
            <trkpt lon="-124.268790" lat="40.193540"><ele>13.0</ele></trkpt>
            <trkpt lon="-124.268670" lat="40.193370"><ele>13.0</ele></trkpt>
            <trkpt lon="-124.268260" lat="40.193150"><ele>10.0</ele></trkpt>
            <trkpt lon="-124.268080" lat="40.193020"><ele>10.0</ele></trkpt>
            <trkpt lon="-124.267491" lat="40.192447"><ele>7.0</ele></trkpt>
            <trkpt lon="-124.267491" lat="40.192447"><ele>7.0</ele></trkpt>
            <trkpt lon="-124.267350" lat="40.192310"><ele>7.0</ele></trkpt>
            <trkpt lon="-124.267000" lat="40.192050"><ele>7.0</ele></trkpt>
            <trkpt lon="-124.266640" lat="40.191710"><ele>21.0</ele></trkpt>
            <trkpt lon="-124.266190" lat="40.191230"><ele>8.0</ele></trkpt>
            <trkpt lon="-124.265160" lat="40.190520"><ele>7.0</ele></trkpt>
            <trkpt lon="-124.265160" lat="40.190520"><ele>7.0</ele></trkpt>
            <trkpt lon="-124.265160" lat="40.190520"><ele>7.0</ele></trkpt>
            <trkpt lon="-124.264910" lat="40.190390"><ele>17.0</ele></trkpt>
            <trkpt lon="-124.264753" lat="40.190271"><ele>17.0</ele></trkpt>
            <trkpt lon="-124.264754" lat="40.190272"><ele>17.0</ele></trkpt>
            <trkpt lon="-124.264660" lat="40.190200"><ele>17.0</ele></trkpt>
            <trkpt lon="-124.264430" lat="40.190110"><ele>17.0</ele></trkpt>
            <trkpt lon="-124.264170" lat="40.189870"><ele>10.0</ele></trkpt>
            <trkpt lon="-124.263710" lat="40.189660"><ele>10.0</ele></trkpt>
            <trkpt lon="-124.263118" lat="40.189351"><ele>24.0</ele></trkpt>
            <trkpt lon="-124.263120" lat="40.189352"><ele>24.0</ele></trkpt>
            <trkpt lon="-124.263020" lat="40.189300"><ele>24.0</ele></trkpt>
            <trkpt lon="-124.262590" lat="40.189150"><ele>5.0</ele></trkpt>
            <trkpt lon="-124.261710" lat="40.188680"><ele>7.0</ele></trkpt>
            <trkpt lon="-124.261430" lat="40.188450"><ele>13.0</ele></trkpt>
            <trkpt lon="-124.260940" lat="40.187950"><ele>6.0</ele></trkpt>
            <trkpt lon="-124.260630" lat="40.187680"><ele>9.0</ele></trkpt>
            <trkpt lon="-124.260272" lat="40.187420"><ele>6.0</ele></trkpt>
            <trkpt lon="-124.260272" lat="40.187419"><ele>6.0</ele></trkpt>
            <trkpt lon="-124.259820" lat="40.187090"><ele>9.0</ele></trkpt>
            <trkpt lon="-124.258750" lat="40.186350"><ele>8.0</ele></trkpt>
            <trkpt lon="-124.258475" lat="40.186125"><ele>8.0</ele></trkpt>
            <trkpt lon="-124.258475" lat="40.186124"><ele>8.0</ele></trkpt>
            <trkpt lon="-124.258360" lat="40.186030"><ele>8.0</ele></trkpt>
            <trkpt lon="-124.258008" lat="40.185834"><ele>12.0</ele></trkpt>
            <trkpt lon="-124.258010" lat="40.185835"><ele>12.0</ele></trkpt>
            <trkpt lon="-124.258000" lat="40.185830"><ele>12.0</ele></trkpt>
            <trkpt lon="-124.257800" lat="40.185630"><ele>7.0</ele></trkpt>
            <trkpt lon="-124.257320" lat="40.185010"><ele>10.0</ele></trkpt>
            <trkpt lon="-124.256910" lat="40.184880"><ele>5.0</ele></trkpt>
            <trkpt lon="-124.256572" lat="40.184606"><ele>7.0</ele></trkpt>
            <trkpt lon="-124.256573" lat="40.184607"><ele>7.0</ele></trkpt>
            <trkpt lon="-124.256540" lat="40.184580"><ele>7.0</ele></trkpt>
            <trkpt lon="-124.256240" lat="40.184390"><ele>7.0</ele></trkpt>
            <trkpt lon="-124.255980" lat="40.184280"><ele>7.0</ele></trkpt>
            <trkpt lon="-124.255977" lat="40.184273"><ele>7.0</ele></trkpt>
            <trkpt lon="-124.255849" lat="40.184203"><ele>7.0</ele></trkpt>
            <trkpt lon="-124.255760" lat="40.184219"><ele>10.0</ele></trkpt>
            <trkpt lon="-124.255677" lat="40.184275"><ele>10.0</ele></trkpt>
            <trkpt lon="-124.255548" lat="40.184318"><ele>10.0</ele></trkpt>
            <trkpt lon="-124.255457" lat="40.184375"><ele>10.0</ele></trkpt>
            <trkpt lon="-124.255350" lat="40.184340"><ele>10.0</ele></trkpt>
            <trkpt lon="-124.255224" lat="40.184318"><ele>10.0</ele></trkpt>
            <trkpt lon="-124.255140" lat="40.184330"><ele>10.0</ele></trkpt>
            <trkpt lon="-124.255081" lat="40.184348"><ele>10.0</ele></trkpt>
            <trkpt lon="-124.255087" lat="40.184291"><ele>10.0</ele></trkpt>
            <trkpt lon="-124.255068" lat="40.184221"><ele>10.0</ele></trkpt>
            <trkpt lon="-124.255041" lat="40.184123"><ele>6.0</ele></trkpt>
            <trkpt lon="-124.255033" lat="40.184053"><ele>6.0</ele></trkpt>
            <trkpt lon="-124.255047" lat="40.183980"><ele>6.0</ele></trkpt>
            <trkpt lon="-124.255087" lat="40.183932"><ele>6.0</ele></trkpt>
            <trkpt lon="-124.254947" lat="40.183859"><ele>8.0</ele></trkpt>
            <trkpt lon="-124.254821" lat="40.183775"><ele>8.0</ele></trkpt>
            <trkpt lon="-124.254824" lat="40.183771"><ele>8.0</ele></trkpt>
            <trkpt lon="-124.254470" lat="40.183590"><ele>8.0</ele></trkpt>
            <trkpt lon="-124.254240" lat="40.183544"><ele>8.0</ele></trkpt>
            <trkpt lon="-124.254242" lat="40.183544"><ele>8.0</ele></trkpt>
            <trkpt lon="-124.254170" lat="40.183530"><ele>8.0</ele></trkpt>
            <trkpt lon="-124.254013" lat="40.183447"><ele>13.0</ele></trkpt>
            <trkpt lon="-124.254013" lat="40.183447"><ele>13.0</ele></trkpt>
            <trkpt lon="-124.253810" lat="40.183340"><ele>13.0</ele></trkpt>
            <trkpt lon="-124.253658" lat="40.183295"><ele>6.0</ele></trkpt>
            <trkpt lon="-124.253660" lat="40.183296"><ele>6.0</ele></trkpt>
            <trkpt lon="-124.253640" lat="40.183290"><ele>6.0</ele></trkpt>
            <trkpt lon="-124.253190" lat="40.183050"><ele>7.0</ele></trkpt>
            <trkpt lon="-124.252920" lat="40.182960"><ele>7.0</ele></trkpt>
            <trkpt lon="-124.252760" lat="40.182960"><ele>7.0</ele></trkpt>
            <trkpt lon="-124.252718" lat="40.182946"><ele>7.0</ele></trkpt>
            <trkpt lon="-124.252719" lat="40.182947"><ele>7.0</ele></trkpt>
            <trkpt lon="-124.252030" lat="40.182720"><ele>7.0</ele></trkpt>
            <trkpt lon="-124.251880" lat="40.182580"><ele>7.0</ele></trkpt>
            <trkpt lon="-124.251680" lat="40.182510"><ele>7.0</ele></trkpt>
            <trkpt lon="-124.251059" lat="40.182129"><ele>6.0</ele></trkpt>
            <trkpt lon="-124.251061" lat="40.182129"><ele>6.0</ele></trkpt>
            <trkpt lon="-124.250980" lat="40.182080"><ele>6.0</ele></trkpt>
            <trkpt lon="-124.250980" lat="40.182080"><ele>6.0</ele></trkpt>
            <trkpt lon="-124.250200" lat="40.181580"><ele>2.0</ele></trkpt>
            <trkpt lon="-124.249080" lat="40.181080"><ele>11.0</ele></trkpt>
            <trkpt lon="-124.248926" lat="40.181013"><ele>11.0</ele></trkpt>
            <trkpt lon="-124.248928" lat="40.181014"><ele>11.0</ele></trkpt>
            <trkpt lon="-124.248920" lat="40.181010"><ele>11.0</ele></trkpt>
            <trkpt lon="-124.248710" lat="40.181030"><ele>11.0</ele></trkpt>
            <trkpt lon="-124.248400" lat="40.181020"><ele>11.0</ele></trkpt>
            <trkpt lon="-124.248400" lat="40.181020"><ele>11.0</ele></trkpt>
            <trkpt lon="-124.248394" lat="40.181018"><ele>11.0</ele></trkpt>
            <trkpt lon="-124.248396" lat="40.181018"><ele>11.0</ele></trkpt>
            <trkpt lon="-124.248220" lat="40.180950"><ele>17.0</ele></trkpt>
            <trkpt lon="-124.247840" lat="40.180920"><ele>17.0</ele></trkpt>
            <trkpt lon="-124.247640" lat="40.180810"><ele>6.0</ele></trkpt>
            <trkpt lon="-124.247110" lat="40.180740"><ele>9.0</ele></trkpt>
            <trkpt lon="-124.246900" lat="40.180680"><ele>9.0</ele></trkpt>
            <trkpt lon="-124.246560" lat="40.180400"><ele>16.0</ele></trkpt>
            <trkpt lon="-124.246483" lat="40.180357"><ele>16.0</ele></trkpt>
            <trkpt lon="-124.246484" lat="40.180358"><ele>16.0</ele></trkpt>
            <trkpt lon="-124.246380" lat="40.180300"><ele>16.0</ele></trkpt>
            <trkpt lon="-124.244590" lat="40.179560"><ele>19.0</ele></trkpt>
            <trkpt lon="-124.244553" lat="40.179542"><ele>19.0</ele></trkpt>
            <trkpt lon="-124.244363" lat="40.179346"><ele>19.0</ele></trkpt>
            <trkpt lon="-124.244076" lat="40.179332"><ele>41.0</ele></trkpt>
            <trkpt lon="-124.244077" lat="40.179326"><ele>41.0</ele></trkpt>
            <trkpt lon="-124.243840" lat="40.179300"><ele>41.0</ele></trkpt>
            <trkpt lon="-124.243448" lat="40.179215"><ele>41.0</ele></trkpt>
            <trkpt lon="-124.243450" lat="40.179215"><ele>41.0</ele></trkpt>
            <trkpt lon="-124.243380" lat="40.179200"><ele>41.0</ele></trkpt>
            <trkpt lon="-124.242950" lat="40.178870"><ele>13.0</ele></trkpt>
            <trkpt lon="-124.242950" lat="40.178870"><ele>13.0</ele></trkpt>
            <trkpt lon="-124.242780" lat="40.178750"><ele>13.0</ele></trkpt>
            <trkpt lon="-124.242640" lat="40.178690"><ele>13.0</ele></trkpt>
            <trkpt lon="-124.242636" lat="40.178689"><ele>13.0</ele></trkpt>
            <trkpt lon="-124.242638" lat="40.178690"><ele>13.0</ele></trkpt>
            <trkpt lon="-124.242460" lat="40.178650"><ele>30.0</ele></trkpt>
            <trkpt lon="-124.241670" lat="40.178390"><ele>54.0</ele></trkpt>
            <trkpt lon="-124.240880" lat="40.178230"><ele>8.0</ele></trkpt>
            <trkpt lon="-124.240660" lat="40.178151"><ele>16.0</ele></trkpt>
            <trkpt lon="-124.240661" lat="40.178152"><ele>16.0</ele></trkpt>
            <trkpt lon="-124.239900" lat="40.177880"><ele>28.0</ele></trkpt>
            <trkpt lon="-124.239300" lat="40.177630"><ele>28.0</ele></trkpt>
            <trkpt lon="-124.238980" lat="40.177538"><ele>41.0</ele></trkpt>
            <trkpt lon="-124.238981" lat="40.177538"><ele>41.0</ele></trkpt>
            <trkpt lon="-124.238330" lat="40.177350"><ele>16.0</ele></trkpt>
            <trkpt lon="-124.237669" lat="40.177030"><ele>16.0</ele></trkpt>
            <trkpt lon="-124.237670" lat="40.177031"><ele>16.0</ele></trkpt>
            <trkpt lon="-124.237380" lat="40.176890"><ele>24.0</ele></trkpt>
            <trkpt lon="-124.237160" lat="40.176750"><ele>24.0</ele></trkpt>
            <trkpt lon="-124.236930" lat="40.176540"><ele>8.0</ele></trkpt>
            <trkpt lon="-124.236260" lat="40.176320"><ele>14.0</ele></trkpt>
            <trkpt lon="-124.235700" lat="40.176040"><ele>23.0</ele></trkpt>
            <trkpt lon="-124.235480" lat="40.175800"><ele>7.0</ele></trkpt>
            <trkpt lon="-124.235210" lat="40.175640"><ele>7.0</ele></trkpt>
            <trkpt lon="-124.234960" lat="40.175380"><ele>16.0</ele></trkpt>
            <trkpt lon="-124.234800" lat="40.175300"><ele>16.0</ele></trkpt>
            <trkpt lon="-124.234423" lat="40.175179"><ele>16.0</ele></trkpt>
            <trkpt lon="-124.234424" lat="40.175179"><ele>16.0</ele></trkpt>
            <trkpt lon="-124.233400" lat="40.174850"><ele>9.0</ele></trkpt>
            <trkpt lon="-124.233400" lat="40.174850"><ele>9.0</ele></trkpt>
            <trkpt lon="-124.233280" lat="40.174810"><ele>14.0</ele></trkpt>
            <trkpt lon="-124.233120" lat="40.174700"><ele>14.0</ele></trkpt>
            <trkpt lon="-124.232880" lat="40.174470"><ele>14.0</ele></trkpt>
            <trkpt lon="-124.232821" lat="40.174429"><ele>14.0</ele></trkpt>
            <trkpt lon="-124.232822" lat="40.174430"><ele>14.0</ele></trkpt>
            <trkpt lon="-124.232680" lat="40.174330"><ele>14.0</ele></trkpt>
            <trkpt lon="-124.232680" lat="40.174330"><ele>14.0</ele></trkpt>
            <trkpt lon="-124.232680" lat="40.174330"><ele>14.0</ele></trkpt>
            <trkpt lon="-124.232590" lat="40.174180"><ele>14.0</ele></trkpt>
            <trkpt lon="-124.232010" lat="40.173500"><ele>14.0</ele></trkpt>
            <trkpt lon="-124.231740" lat="40.173240"><ele>0.0</ele></trkpt>
            <trkpt lon="-124.231390" lat="40.172980"><ele>15.0</ele></trkpt>
            <trkpt lon="-124.230850" lat="40.172620"><ele>15.0</ele></trkpt>
            <trkpt lon="-124.230630" lat="40.172580"><ele>33.0</ele></trkpt>
            <trkpt lon="-124.230480" lat="40.172580"><ele>33.0</ele></trkpt>
            <trkpt lon="-124.230480" lat="40.172580"><ele>33.0</ele></trkpt>
            <trkpt lon="-124.230250" lat="40.172580"><ele>33.0</ele></trkpt>
            <trkpt lon="-124.230050" lat="40.172520"><ele>33.0</ele></trkpt>
            <trkpt lon="-124.229910" lat="40.172450"><ele>15.0</ele></trkpt>
            <trkpt lon="-124.229750" lat="40.172280"><ele>15.0</ele></trkpt>
            <trkpt lon="-124.229720" lat="40.172210"><ele>15.0</ele></trkpt>
            <trkpt lon="-124.229600" lat="40.172130"><ele>15.0</ele></trkpt>
            <trkpt lon="-124.229610" lat="40.172010"><ele>15.0</ele></trkpt>
            <trkpt lon="-124.229710" lat="40.171890"><ele>15.0</ele></trkpt>
            <trkpt lon="-124.229750" lat="40.171760"><ele>15.0</ele></trkpt>
            <trkpt lon="-124.229730" lat="40.171620"><ele>7.0</ele></trkpt>
            <trkpt lon="-124.229564" lat="40.171391"><ele>7.0</ele></trkpt>
            <trkpt lon="-124.229565" lat="40.171392"><ele>7.0</ele></trkpt>
            <trkpt lon="-124.229520" lat="40.171330"><ele>7.0</ele></trkpt>
            <trkpt lon="-124.229210" lat="40.170950"><ele>7.0</ele></trkpt>
            <trkpt lon="-124.229050" lat="40.170820"><ele>9.0</ele></trkpt>
            <trkpt lon="-124.228320" lat="40.170410"><ele>13.0</ele></trkpt>
            <trkpt lon="-124.227840" lat="40.169987"><ele>6.0</ele></trkpt>
            <trkpt lon="-124.227841" lat="40.169989"><ele>6.0</ele></trkpt>
            <trkpt lon="-124.227650" lat="40.169820"><ele>6.0</ele></trkpt>
            <trkpt lon="-124.226940" lat="40.169150"><ele>6.0</ele></trkpt>
            <trkpt lon="-124.226600" lat="40.168760"><ele>10.0</ele></trkpt>
            <trkpt lon="-124.226370" lat="40.168550"><ele>10.0</ele></trkpt>
            <trkpt lon="-124.225840" lat="40.168090"><ele>5.0</ele></trkpt>
            <trkpt lon="-124.225510" lat="40.167930"><ele>10.0</ele></trkpt>
            <trkpt lon="-124.225404" lat="40.167899"><ele>10.0</ele></trkpt>
            <trkpt lon="-124.225407" lat="40.167900"><ele>10.0</ele></trkpt>
            <trkpt lon="-124.225326" lat="40.167877"><ele>10.0</ele></trkpt>
            <trkpt lon="-124.225330" lat="40.167870"><ele>10.0</ele></trkpt>
            <trkpt lon="-124.225110" lat="40.167700"><ele>10.0</ele></trkpt>
            <trkpt lon="-124.225010" lat="40.167520"><ele>10.0</ele></trkpt>
            <trkpt lon="-124.224862" lat="40.167364"><ele>5.0</ele></trkpt>
            <trkpt lon="-124.224863" lat="40.167365"><ele>5.0</ele></trkpt>
            <trkpt lon="-124.224640" lat="40.167130"><ele>5.0</ele></trkpt>
            <trkpt lon="-124.224310" lat="40.166930"><ele>5.0</ele></trkpt>
            <trkpt lon="-124.224310" lat="40.166930"><ele>5.0</ele></trkpt>
            <trkpt lon="-124.224310" lat="40.166930"><ele>5.0</ele></trkpt>
            <trkpt lon="-124.224310" lat="40.166930"><ele>5.0</ele></trkpt>
            <trkpt lon="-124.224310" lat="40.166930"><ele>5.0</ele></trkpt>
            <trkpt lon="-124.224310" lat="40.166930"><ele>5.0</ele></trkpt>
            <trkpt lon="-124.224310" lat="40.166930"><ele>5.0</ele></trkpt>
            <trkpt lon="-124.223652" lat="40.166565"><ele>2.0</ele></trkpt>
            <trkpt lon="-124.223655" lat="40.166567"><ele>2.0</ele></trkpt>
            <trkpt lon="-124.223390" lat="40.166420"><ele>2.0</ele></trkpt>
            <trkpt lon="-124.222557" lat="40.165695"><ele>0.0</ele></trkpt>
            <trkpt lon="-124.222558" lat="40.165696"><ele>0.0</ele></trkpt>
            <trkpt lon="-124.222540" lat="40.165680"><ele>0.0</ele></trkpt>
            <trkpt lon="-124.222010" lat="40.165450"><ele>3.0</ele></trkpt>
            <trkpt lon="-124.221329" lat="40.165231"><ele>6.0</ele></trkpt>
            <trkpt lon="-124.221324" lat="40.165230"><ele>6.0</ele></trkpt>
            <trkpt lon="-124.220950" lat="40.165110"><ele>6.0</ele></trkpt>
            <trkpt lon="-124.220730" lat="40.164970"><ele>0.0</ele></trkpt>
            <trkpt lon="-124.220500" lat="40.164790"><ele>0.0</ele></trkpt>
            <trkpt lon="-124.219989" lat="40.164574"><ele>7.0</ele></trkpt>
            <trkpt lon="-124.219992" lat="40.164576"><ele>7.0</ele></trkpt>
            <trkpt lon="-124.219670" lat="40.164440"><ele>7.0</ele></trkpt>
            <trkpt lon="-124.219300" lat="40.164210"><ele>7.0</ele></trkpt>
            <trkpt lon="-124.218495" lat="40.164073"><ele>0.0</ele></trkpt>
            <trkpt lon="-124.217691" lat="40.163846"><ele>11.0</ele></trkpt>
            <trkpt lon="-124.217280" lat="40.163567"><ele>25.0</ele></trkpt>
            <trkpt lon="-124.217146" lat="40.163455"><ele>25.0</ele></trkpt>
            <trkpt lon="-124.217036" lat="40.163405"><ele>25.0</ele></trkpt>
            <trkpt lon="-124.216818" lat="40.163296"><ele>0.0</ele></trkpt>
            <trkpt lon="-124.216259" lat="40.163184"><ele>11.0</ele></trkpt>
            <trkpt lon="-124.215692" lat="40.162722"><ele>37.0</ele></trkpt>
            <trkpt lon="-124.215369" lat="40.162459"><ele>6.0</ele></trkpt>
            <trkpt lon="-124.215214" lat="40.162256"><ele>6.0</ele></trkpt>
            <trkpt lon="-124.215063" lat="40.162117"><ele>6.0</ele></trkpt>
            <trkpt lon="-124.214900" lat="40.161690"><ele>36.0</ele></trkpt>
            <trkpt lon="-124.214900" lat="40.161690"><ele>36.0</ele></trkpt>
            <trkpt lon="-124.214908" lat="40.161704"><ele>36.0</ele></trkpt>
            <trkpt lon="-124.214908" lat="40.161705"><ele>36.0</ele></trkpt>
            <trkpt lon="-124.214900" lat="40.161690"><ele>36.0</ele></trkpt>
            <trkpt lon="-124.214900" lat="40.161690"><ele>36.0</ele></trkpt>
            <trkpt lon="-124.214900" lat="40.161690"><ele>36.0</ele></trkpt>
            <trkpt lon="-124.214670" lat="40.161470"><ele>5.0</ele></trkpt>
            <trkpt lon="-124.214200" lat="40.160790"><ele>0.0</ele></trkpt>
            <trkpt lon="-124.214097" lat="40.160562"><ele>16.0</ele></trkpt>
            <trkpt lon="-124.214099" lat="40.160565"><ele>16.0</ele></trkpt>
            <trkpt lon="-124.213880" lat="40.160080"><ele>16.0</ele></trkpt>
            <trkpt lon="-124.213880" lat="40.160080"><ele>16.0</ele></trkpt>
            <trkpt lon="-124.213880" lat="40.160080"><ele>16.0</ele></trkpt>
            <trkpt lon="-124.213640" lat="40.159410"><ele>0.0</ele></trkpt>
            <trkpt lon="-124.213520" lat="40.159230"><ele>0.0</ele></trkpt>
            <trkpt lon="-124.213190" lat="40.158880"><ele>8.0</ele></trkpt>
            <trkpt lon="-124.213050" lat="40.158710"><ele>8.0</ele></trkpt>
            <trkpt lon="-124.212740" lat="40.158310"><ele>0.0</ele></trkpt>
            <trkpt lon="-124.212463" lat="40.157872"><ele>15.0</ele></trkpt>
            <trkpt lon="-124.212463" lat="40.157872"><ele>15.0</ele></trkpt>
            <trkpt lon="-124.212430" lat="40.157820"><ele>15.0</ele></trkpt>
            <trkpt lon="-124.212240" lat="40.157630"><ele>15.0</ele></trkpt>
            <trkpt lon="-124.211900" lat="40.157460"><ele>0.0</ele></trkpt>
            <trkpt lon="-124.211900" lat="40.157460"><ele>0.0</ele></trkpt>
            <trkpt lon="-124.211780" lat="40.157190"><ele>0.0</ele></trkpt>
            <trkpt lon="-124.211580" lat="40.157010"><ele>12.0</ele></trkpt>
            <trkpt lon="-124.211430" lat="40.156910"><ele>12.0</ele></trkpt>
            <trkpt lon="-124.211430" lat="40.156910"><ele>12.0</ele></trkpt>
            <trkpt lon="-124.211330" lat="40.156820"><ele>12.0</ele></trkpt>
            <trkpt lon="-124.211134" lat="40.156706"><ele>12.0</ele></trkpt>
            <trkpt lon="-124.211134" lat="40.156706"><ele>12.0</ele></trkpt>
            <trkpt lon="-124.211108" lat="40.156691"><ele>12.0</ele></trkpt>
            <trkpt lon="-124.211110" lat="40.156692"><ele>12.0</ele></trkpt>
            <trkpt lon="-124.211020" lat="40.156640"><ele>0.0</ele></trkpt>
            <trkpt lon="-124.210730" lat="40.156444"><ele>4.0</ele></trkpt>
            <trkpt lon="-124.210732" lat="40.156446"><ele>4.0</ele></trkpt>
            <trkpt lon="-124.210250" lat="40.156120"><ele>4.0</ele></trkpt>
            <trkpt lon="-124.210237" lat="40.156114"><ele>4.0</ele></trkpt>
            <trkpt lon="-124.210239" lat="40.156114"><ele>4.0</ele></trkpt>
            <trkpt lon="-124.209560" lat="40.155770"><ele>3.0</ele></trkpt>
            <trkpt lon="-124.209380" lat="40.155660"><ele>3.0</ele></trkpt>
            <trkpt lon="-124.208660" lat="40.155050"><ele>25.0</ele></trkpt>
            <trkpt lon="-124.208557" lat="40.154952"><ele>0.0</ele></trkpt>
            <trkpt lon="-124.207775" lat="40.154245"><ele>15.0</ele></trkpt>
            <trkpt lon="-124.207074" lat="40.153026"><ele>2.0</ele></trkpt>
            <trkpt lon="-124.206591" lat="40.152448"><ele>3.0</ele></trkpt>
            <trkpt lon="-124.206071" lat="40.152005"><ele>3.0</ele></trkpt>
            <trkpt lon="-124.205148" lat="40.151341"><ele>3.0</ele></trkpt>
            <trkpt lon="-124.204180" lat="40.150652"><ele>0.0</ele></trkpt>
            <trkpt lon="-124.203963" lat="40.150517"><ele>10.0</ele></trkpt>
            <trkpt lon="-124.203839" lat="40.150472"><ele>10.0</ele></trkpt>
            <trkpt lon="-124.203836" lat="40.150479"><ele>10.0</ele></trkpt>
            <trkpt lon="-124.203750" lat="40.150450"><ele>10.0</ele></trkpt>
            <trkpt lon="-124.203490" lat="40.150330"><ele>10.0</ele></trkpt>
            <trkpt lon="-124.203248" lat="40.150010"><ele>38.0</ele></trkpt>
            <trkpt lon="-124.203120" lat="40.149780"><ele>19.0</ele></trkpt>
            <trkpt lon="-124.203000" lat="40.149390"><ele>19.0</ele></trkpt>
            <trkpt lon="-124.202970" lat="40.149160"><ele>5.0</ele></trkpt>
            <trkpt lon="-124.202850" lat="40.148810"><ele>5.0</ele></trkpt>
            <trkpt lon="-124.202450" lat="40.148310"><ele>14.0</ele></trkpt>
            <trkpt lon="-124.201660" lat="40.147690"><ele>38.0</ele></trkpt>
            <trkpt lon="-124.201360" lat="40.147280"><ele>15.0</ele></trkpt>
            <trkpt lon="-124.201100" lat="40.147120"><ele>15.0</ele></trkpt>
            <trkpt lon="-124.200840" lat="40.146810"><ele>15.0</ele></trkpt>
            <trkpt lon="-124.200820" lat="40.146620"><ele>25.0</ele></trkpt>
            <trkpt lon="-124.200680" lat="40.146420"><ele>25.0</ele></trkpt>
            <trkpt lon="-124.200430" lat="40.146200"><ele>25.0</ele></trkpt>
            <trkpt lon="-124.200300" lat="40.145990"><ele>25.0</ele></trkpt>
            <trkpt lon="-124.200040" lat="40.145710"><ele>14.0</ele></trkpt>
            <trkpt lon="-124.199080" lat="40.145290"><ele>54.0</ele></trkpt>
            <trkpt lon="-124.199080" lat="40.145290"><ele>54.0</ele></trkpt>
            <trkpt lon="-124.198642" lat="40.145020"><ele>54.0</ele></trkpt>
            <trkpt lon="-124.198648" lat="40.145023"><ele>54.0</ele></trkpt>
            <trkpt lon="-124.198610" lat="40.145000"><ele>54.0</ele></trkpt>
            <trkpt lon="-124.198300" lat="40.144880"><ele>38.0</ele></trkpt>
            <trkpt lon="-124.198120" lat="40.144780"><ele>38.0</ele></trkpt>
            <trkpt lon="-124.198040" lat="40.144610"><ele>38.0</ele></trkpt>
            <trkpt lon="-124.197900" lat="40.144480"><ele>38.0</ele></trkpt>
            <trkpt lon="-124.197840" lat="40.144260"><ele>38.0</ele></trkpt>
            <trkpt lon="-124.197680" lat="40.144060"><ele>19.0</ele></trkpt>
            <trkpt lon="-124.197570" lat="40.143990"><ele>19.0</ele></trkpt>
            <trkpt lon="-124.197550" lat="40.143760"><ele>19.0</ele></trkpt>
            <trkpt lon="-124.197670" lat="40.143540"><ele>19.0</ele></trkpt>
            <trkpt lon="-124.197650" lat="40.143390"><ele>19.0</ele></trkpt>
            <trkpt lon="-124.197460" lat="40.143090"><ele>14.0</ele></trkpt>
            <trkpt lon="-124.197330" lat="40.142990"><ele>14.0</ele></trkpt>
            <trkpt lon="-124.197200" lat="40.142950"><ele>14.0</ele></trkpt>
            <trkpt lon="-124.196880" lat="40.142930"><ele>14.0</ele></trkpt>
            <trkpt lon="-124.196660" lat="40.142850"><ele>16.0</ele></trkpt>
            <trkpt lon="-124.196506" lat="40.142744"><ele>16.0</ele></trkpt>
            <trkpt lon="-124.196510" lat="40.142747"><ele>16.0</ele></trkpt>
            <trkpt lon="-124.196500" lat="40.142740"><ele>16.0</ele></trkpt>
            <trkpt lon="-124.195000" lat="40.140920"><ele>14.0</ele></trkpt>
            <trkpt lon="-124.194640" lat="40.140690"><ele>8.0</ele></trkpt>
            <trkpt lon="-124.194290" lat="40.140500"><ele>8.0</ele></trkpt>
            <trkpt lon="-124.194090" lat="40.140350"><ele>13.0</ele></trkpt>
            <trkpt lon="-124.193460" lat="40.139460"><ele>6.0</ele></trkpt>
            <trkpt lon="-124.193290" lat="40.139050"><ele>9.0</ele></trkpt>
            <trkpt lon="-124.192980" lat="40.138720"><ele>9.0</ele></trkpt>
            <trkpt lon="-124.192929" lat="40.138703"><ele>9.0</ele></trkpt>
            <trkpt lon="-124.192932" lat="40.138704"><ele>9.0</ele></trkpt>
            <trkpt lon="-124.192650" lat="40.138610"><ele>9.0</ele></trkpt>
            <trkpt lon="-124.191980" lat="40.138070"><ele>16.0</ele></trkpt>
            <trkpt lon="-124.192030" lat="40.137970"><ele>16.0</ele></trkpt>
            <trkpt lon="-124.192010" lat="40.137850"><ele>16.0</ele></trkpt>
            <trkpt lon="-124.191950" lat="40.137760"><ele>16.0</ele></trkpt>
            <trkpt lon="-124.191953" lat="40.137732"><ele>16.0</ele></trkpt>
            <trkpt lon="-124.191953" lat="40.137735"><ele>16.0</ele></trkpt>
            <trkpt lon="-124.191970" lat="40.137590"><ele>16.0</ele></trkpt>
            <trkpt lon="-124.191920" lat="40.137430"><ele>0.0</ele></trkpt>
            <trkpt lon="-124.191550" lat="40.137250"><ele>11.0</ele></trkpt>
            <trkpt lon="-124.191280" lat="40.137080"><ele>11.0</ele></trkpt>
            <trkpt lon="-124.190990" lat="40.136790"><ele>11.0</ele></trkpt>
            <trkpt lon="-124.190560" lat="40.136450"><ele>7.0</ele></trkpt>
            <trkpt lon="-124.190430" lat="40.136260"><ele>7.0</ele></trkpt>
            <trkpt lon="-124.189450" lat="40.135350"><ele>6.0</ele></trkpt>
            <trkpt lon="-124.189450" lat="40.135350"><ele>6.0</ele></trkpt>
            <trkpt lon="-124.188680" lat="40.134640"><ele>6.0</ele></trkpt>
            <trkpt lon="-124.187420" lat="40.133760"><ele>7.0</ele></trkpt>
            <trkpt lon="-124.187177" lat="40.133643"><ele>7.0</ele></trkpt>
            <trkpt lon="-124.179538" lat="40.131494"><ele>9.0</ele></trkpt>
            <trkpt lon="-124.179817" lat="40.130666"><ele>7.0</ele></trkpt>
            <trkpt lon="-124.179797" lat="40.130663"><ele>7.0</ele></trkpt>
            <trkpt lon="-124.179850" lat="40.130480"><ele>7.0</ele></trkpt>
            <trkpt lon="-124.180040" lat="40.130160"><ele>7.0</ele></trkpt>
            <trkpt lon="-124.180020" lat="40.130090"><ele>7.0</ele></trkpt>
            <trkpt lon="-124.179890" lat="40.129970"><ele>5.0</ele></trkpt>
            <trkpt lon="-124.179620" lat="40.129840"><ele>5.0</ele></trkpt>
            <trkpt lon="-124.179300" lat="40.129530"><ele>5.0</ele></trkpt>
            <trkpt lon="-124.179300" lat="40.129530"><ele>5.0</ele></trkpt>
            <trkpt lon="-124.179300" lat="40.129530"><ele>5.0</ele></trkpt>
            <trkpt lon="-124.179040" lat="40.129450"><ele>5.0</ele></trkpt>
            <trkpt lon="-124.179026" lat="40.129442"><ele>5.0</ele></trkpt>
            <trkpt lon="-124.179032" lat="40.129446"><ele>5.0</ele></trkpt>
            <trkpt lon="-124.178850" lat="40.129340"><ele>5.0</ele></trkpt>
            <trkpt lon="-124.178620" lat="40.129260"><ele>5.0</ele></trkpt>
            <trkpt lon="-124.178390" lat="40.129180"><ele>5.0</ele></trkpt>
            <trkpt lon="-124.178220" lat="40.129170"><ele>6.0</ele></trkpt>
            <trkpt lon="-124.177970" lat="40.128980"><ele>5.0</ele></trkpt>
            <trkpt lon="-124.177810" lat="40.128930"><ele>5.0</ele></trkpt>
            <trkpt lon="-124.177580" lat="40.128860"><ele>5.0</ele></trkpt>
            <trkpt lon="-124.177200" lat="40.128840"><ele>6.0</ele></trkpt>
            <trkpt lon="-124.176970" lat="40.128770"><ele>6.0</ele></trkpt>
            <trkpt lon="-124.176510" lat="40.128490"><ele>6.0</ele></trkpt>
            <trkpt lon="-124.176510" lat="40.128490"><ele>6.0</ele></trkpt>
            <trkpt lon="-124.176461" lat="40.128466"><ele>6.0</ele></trkpt>
            <trkpt lon="-124.176458" lat="40.128464"><ele>6.0</ele></trkpt>
            <trkpt lon="-124.176170" lat="40.128320"><ele>4.0</ele></trkpt>
            <trkpt lon="-124.175870" lat="40.128300"><ele>4.0</ele></trkpt>
            <trkpt lon="-124.175580" lat="40.128310"><ele>3.0</ele></trkpt>
            <trkpt lon="-124.175323" lat="40.128262"><ele>3.0</ele></trkpt>
            <trkpt lon="-124.175320" lat="40.128262"><ele>3.0</ele></trkpt>
            <trkpt lon="-124.175310" lat="40.128260"><ele>3.0</ele></trkpt>
            <trkpt lon="-124.175070" lat="40.128090"><ele>3.0</ele></trkpt>
            <trkpt lon="-124.174680" lat="40.127560"><ele>6.0</ele></trkpt>
            <trkpt lon="-124.174681" lat="40.127559"><ele>6.0</ele></trkpt>
            <trkpt lon="-124.174230" lat="40.127350"><ele>3.0</ele></trkpt>
            <trkpt lon="-124.173820" lat="40.127100"><ele>6.0</ele></trkpt>
            <trkpt lon="-124.173062" lat="40.126324"><ele>6.0</ele></trkpt>
            <trkpt lon="-124.173061" lat="40.126324"><ele>6.0</ele></trkpt>
            <trkpt lon="-124.172960" lat="40.126220"><ele>6.0</ele></trkpt>
            <trkpt lon="-124.172060" lat="40.125860"><ele>7.0</ele></trkpt>
            <trkpt lon="-124.171700" lat="40.125880"><ele>7.0</ele></trkpt>
            <trkpt lon="-124.171400" lat="40.125780"><ele>7.0</ele></trkpt>
            <trkpt lon="-124.171050" lat="40.125770"><ele>7.0</ele></trkpt>
            <trkpt lon="-124.170570" lat="40.125450"><ele>8.0</ele></trkpt>
            <trkpt lon="-124.169860" lat="40.124750"><ele>8.0</ele></trkpt>
            <trkpt lon="-124.168540" lat="40.124340"><ele>8.0</ele></trkpt>
            <trkpt lon="-124.167480" lat="40.124140"><ele>10.0</ele></trkpt>
            <trkpt lon="-124.167480" lat="40.124140"><ele>10.0</ele></trkpt>
            <trkpt lon="-124.167000" lat="40.124100"><ele>10.0</ele></trkpt>
            <trkpt lon="-124.165660" lat="40.123670"><ele>24.0</ele></trkpt>
            <trkpt lon="-124.164940" lat="40.123570"><ele>28.0</ele></trkpt>
            <trkpt lon="-124.164197" lat="40.123560"><ele>28.0</ele></trkpt>
            <trkpt lon="-124.164202" lat="40.123561"><ele>28.0</ele></trkpt>
            <trkpt lon="-124.164160" lat="40.123560"><ele>45.0</ele></trkpt>
            <trkpt lon="-124.163900" lat="40.123440"><ele>45.0</ele></trkpt>
            <trkpt lon="-124.163270" lat="40.122970"><ele>31.0</ele></trkpt>
            <trkpt lon="-124.162820" lat="40.122800"><ele>31.0</ele></trkpt>
            <trkpt lon="-124.162830" lat="40.122650"><ele>31.0</ele></trkpt>
            <trkpt lon="-124.161870" lat="40.122280"><ele>8.0</ele></trkpt>
            <trkpt lon="-124.161400" lat="40.122190"><ele>22.0</ele></trkpt>
            <trkpt lon="-124.160530" lat="40.121940"><ele>41.0</ele></trkpt>
            <trkpt lon="-124.159630" lat="40.121910"><ele>60.0</ele></trkpt>
            <trkpt lon="-124.158840" lat="40.121730"><ele>76.0</ele></trkpt>
            <trkpt lon="-124.158370" lat="40.121580"><ele>7.0</ele></trkpt>
            <trkpt lon="-124.157560" lat="40.121400"><ele>19.0</ele></trkpt>
            <trkpt lon="-124.156560" lat="40.121320"><ele>54.0</ele></trkpt>
            <trkpt lon="-124.155320" lat="40.121040"><ele>69.0</ele></trkpt>
            <trkpt lon="-124.154080" lat="40.120680"><ele>17.0</ele></trkpt>
            <trkpt lon="-124.153160" lat="40.120290"><ele>54.0</ele></trkpt>
            <trkpt lon="-124.152570" lat="40.119940"><ele>0.0</ele></trkpt>
            <trkpt lon="-124.151020" lat="40.118670"><ele>17.0</ele></trkpt>
            <trkpt lon="-124.150318" lat="40.118459"><ele>50.0</ele></trkpt>
            <trkpt lon="-124.150328" lat="40.118462"><ele>50.0</ele></trkpt>
            <trkpt lon="-124.148090" lat="40.117790"><ele>48.0</ele></trkpt>
            <trkpt lon="-124.146140" lat="40.117600"><ele>84.0</ele></trkpt>
            <trkpt lon="-124.145510" lat="40.117640"><ele>73.0</ele></trkpt>
            <trkpt lon="-124.145510" lat="40.117640"><ele>73.0</ele></trkpt>
            <trkpt lon="-124.144410" lat="40.117720"><ele>25.0</ele></trkpt>
            <trkpt lon="-124.142960" lat="40.117650"><ele>47.0</ele></trkpt>
            <trkpt lon="-124.138770" lat="40.116400"><ele>12.0</ele></trkpt>
            <trkpt lon="-124.136940" lat="40.115430"><ele>9.0</ele></trkpt>
            <trkpt lon="-124.135854" lat="40.114903"><ele>0.0</ele></trkpt>
            <trkpt lon="-124.135861" lat="40.114906"><ele>0.0</ele></trkpt>
            <trkpt lon="-124.135190" lat="40.114580"><ele>10.0</ele></trkpt>
            <trkpt lon="-124.134120" lat="40.113890"><ele>18.0</ele></trkpt>
            <trkpt lon="-124.133340" lat="40.113660"><ele>18.0</ele></trkpt>
            <trkpt lon="-124.132410" lat="40.113610"><ele>75.0</ele></trkpt>
            <trkpt lon="-124.131590" lat="40.113530"><ele>94.0</ele></trkpt>
            <trkpt lon="-124.130510" lat="40.113300"><ele>0.0</ele></trkpt>
            <trkpt lon="-124.129420" lat="40.112960"><ele>23.0</ele></trkpt>
            <trkpt lon="-124.128470" lat="40.112390"><ele>0.0</ele></trkpt>
            <trkpt lon="-124.127350" lat="40.111810"><ele>72.0</ele></trkpt>
            <trkpt lon="-124.127278" lat="40.111778"><ele>72.0</ele></trkpt>
            <trkpt lon="-124.127290" lat="40.111783"><ele>72.0</ele></trkpt>
            <trkpt lon="-124.127080" lat="40.111690"><ele>72.0</ele></trkpt>
            <trkpt lon="-124.127080" lat="40.111690"><ele>72.0</ele></trkpt>
            <trkpt lon="-124.126100" lat="40.111260"><ele>27.0</ele></trkpt>
            <trkpt lon="-124.124770" lat="40.110610"><ele>25.0</ele></trkpt>
            <trkpt lon="-124.123540" lat="40.109880"><ele>0.0</ele></trkpt>
            <trkpt lon="-124.123540" lat="40.109880"><ele>0.0</ele></trkpt>
            <trkpt lon="-124.121520" lat="40.108680"><ele>24.0</ele></trkpt>
            <trkpt lon="-124.121460" lat="40.108620"><ele>24.0</ele></trkpt>
            <trkpt lon="-124.121460" lat="40.108620"><ele>24.0</ele></trkpt>
            <trkpt lon="-124.121460" lat="40.108620"><ele>24.0</ele></trkpt>
            <trkpt lon="-124.120300" lat="40.107870"><ele>11.0</ele></trkpt>
            <trkpt lon="-124.119560" lat="40.107220"><ele>8.0</ele></trkpt>
            <trkpt lon="-124.118780" lat="40.106680"><ele>52.0</ele></trkpt>
            <trkpt lon="-124.118070" lat="40.106410"><ele>22.0</ele></trkpt>
            <trkpt lon="-124.116624" lat="40.106080"><ele>65.0</ele></trkpt>
            <trkpt lon="-124.116625" lat="40.106080"><ele>65.0</ele></trkpt>
            <trkpt lon="-124.115400" lat="40.105800"><ele>11.0</ele></trkpt>
            <trkpt lon="-124.113770" lat="40.105260"><ele>43.0</ele></trkpt>
            <trkpt lon="-124.113100" lat="40.105130"><ele>80.0</ele></trkpt>
            <trkpt lon="-124.111890" lat="40.104730"><ele>0.0</ele></trkpt>
            <trkpt lon="-124.110470" lat="40.103940"><ele>0.0</ele></trkpt>
            <trkpt lon="-124.109880" lat="40.103420"><ele>36.0</ele></trkpt>
            <trkpt lon="-124.109390" lat="40.103030"><ele>0.0</ele></trkpt>
            <trkpt lon="-124.108980" lat="40.102510"><ele>27.0</ele></trkpt>
            <trkpt lon="-124.108790" lat="40.102090"><ele>0.0</ele></trkpt>
            <trkpt lon="-124.108171" lat="40.101224"><ele>0.0</ele></trkpt>
            <trkpt lon="-124.108178" lat="40.101234"><ele>0.0</ele></trkpt>
            <trkpt lon="-124.107710" lat="40.100580"><ele>0.0</ele></trkpt>
            <trkpt lon="-124.107250" lat="40.100040"><ele>11.0</ele></trkpt>
            <trkpt lon="-124.106410" lat="40.098940"><ele>0.0</ele></trkpt>
            <trkpt lon="-124.106140" lat="40.098260"><ele>0.0</ele></trkpt>
            <trkpt lon="-124.105900" lat="40.097510"><ele>0.0</ele></trkpt>
            <trkpt lon="-124.105700" lat="40.097220"><ele>0.0</ele></trkpt>
            <trkpt lon="-124.105120" lat="40.096530"><ele>0.0</ele></trkpt>
            <trkpt lon="-124.104420" lat="40.095890"><ele>0.0</ele></trkpt>
            <trkpt lon="-124.103900" lat="40.095280"><ele>4.0</ele></trkpt>
            <trkpt lon="-124.103670" lat="40.094880"><ele>0.0</ele></trkpt>
            <trkpt lon="-124.103670" lat="40.094880"><ele>0.0</ele></trkpt>
            <trkpt lon="-124.103600" lat="40.094760"><ele>0.0</ele></trkpt>
            <trkpt lon="-124.103020" lat="40.094290"><ele>5.0</ele></trkpt>
            <trkpt lon="-124.102270" lat="40.093780"><ele>4.0</ele></trkpt>
            <trkpt lon="-124.102124" lat="40.093632"><ele>4.0</ele></trkpt>
            <trkpt lon="-124.102132" lat="40.093640"><ele>4.0</ele></trkpt>
            <trkpt lon="-124.101560" lat="40.093060"><ele>0.0</ele></trkpt>
            <trkpt lon="-124.101560" lat="40.093060"><ele>0.0</ele></trkpt>
            <trkpt lon="-124.100590" lat="40.092060"><ele>0.0</ele></trkpt>
            <trkpt lon="-124.099660" lat="40.091270"><ele>0.0</ele></trkpt>
            <trkpt lon="-124.098960" lat="40.090920"><ele>35.0</ele></trkpt>
            <trkpt lon="-124.098250" lat="40.090430"><ele>16.0</ele></trkpt>
            <trkpt lon="-124.096330" lat="40.088650"><ele>18.0</ele></trkpt>
            <trkpt lon="-124.095680" lat="40.087860"><ele>18.0</ele></trkpt>
            <trkpt lon="-124.095110" lat="40.086880"><ele>0.0</ele></trkpt>
            <trkpt lon="-124.092660" lat="40.083130"><ele>0.0</ele></trkpt>
            <trkpt lon="-124.092295" lat="40.082475"><ele>0.0</ele></trkpt>
            <trkpt lon="-124.092301" lat="40.082485"><ele>0.0</ele></trkpt>
            <trkpt lon="-124.092220" lat="40.082340"><ele>0.0</ele></trkpt>
            <trkpt lon="-124.090810" lat="40.081640"><ele>3.0</ele></trkpt>
            <trkpt lon="-124.090400" lat="40.081480"><ele>3.0</ele></trkpt>
            <trkpt lon="-124.089790" lat="40.081020"><ele>17.0</ele></trkpt>
            <trkpt lon="-124.088310" lat="40.079650"><ele>7.0</ele></trkpt>
            <trkpt lon="-124.087890" lat="40.079340"><ele>7.0</ele></trkpt>
            <trkpt lon="-124.087050" lat="40.078870"><ele>3.0</ele></trkpt>
            <trkpt lon="-124.086580" lat="40.078430"><ele>17.0</ele></trkpt>
            <trkpt lon="-124.086290" lat="40.078070"><ele>0.0</ele></trkpt>
            <trkpt lon="-124.086290" lat="40.078070"><ele>0.0</ele></trkpt>
            <trkpt lon="-124.086100" lat="40.077830"><ele>0.0</ele></trkpt>
            <trkpt lon="-124.085720" lat="40.076890"><ele>0.0</ele></trkpt>
            <trkpt lon="-124.085670" lat="40.076480"><ele>0.0</ele></trkpt>
            <trkpt lon="-124.085540" lat="40.076110"><ele>0.0</ele></trkpt>
            <trkpt lon="-124.084710" lat="40.075110"><ele>6.0</ele></trkpt>
            <trkpt lon="-124.084270" lat="40.074090"><ele>0.0</ele></trkpt>
            <trkpt lon="-124.084270" lat="40.074090"><ele>0.0</ele></trkpt>
            <trkpt lon="-124.084270" lat="40.074090"><ele>0.0</ele></trkpt>
            <trkpt lon="-124.084211" lat="40.073932"><ele>0.0</ele></trkpt>
            <trkpt lon="-124.084208" lat="40.073924"><ele>0.0</ele></trkpt>
            <trkpt lon="-124.084010" lat="40.073390"><ele>0.0</ele></trkpt>
            <trkpt lon="-124.083770" lat="40.072920"><ele>0.0</ele></trkpt>
            <trkpt lon="-124.083280" lat="40.070910"><ele>6.0</ele></trkpt>
            <trkpt lon="-124.082120" lat="40.069070"><ele>0.0</ele></trkpt>
            <trkpt lon="-124.081730" lat="40.068580"><ele>0.0</ele></trkpt>
            <trkpt lon="-124.081375" lat="40.068037"><ele>0.0</ele></trkpt>
            <trkpt lon="-124.081369" lat="40.068029"><ele>0.0</ele></trkpt>
            <trkpt lon="-124.081030" lat="40.067510"><ele>0.0</ele></trkpt>
            <trkpt lon="-124.080650" lat="40.067010"><ele>0.0</ele></trkpt>
            <trkpt lon="-124.080170" lat="40.065930"><ele>0.0</ele></trkpt>
            <trkpt lon="-124.079830" lat="40.065030"><ele>0.0</ele></trkpt>
            <trkpt lon="-124.079650" lat="40.063930"><ele>0.0</ele></trkpt>
            <trkpt lon="-124.079590" lat="40.062970"><ele>0.0</ele></trkpt>
            <trkpt lon="-124.079590" lat="40.062970"><ele>0.0</ele></trkpt>
            <trkpt lon="-124.079530" lat="40.062070"><ele>0.0</ele></trkpt>
            <trkpt lon="-124.079520" lat="40.061260"><ele>0.0</ele></trkpt>
            <trkpt lon="-124.079520" lat="40.061260"><ele>0.0</ele></trkpt>
            <trkpt lon="-124.079519" lat="40.061196"><ele>0.0</ele></trkpt>
            <trkpt lon="-124.079519" lat="40.061204"><ele>0.0</ele></trkpt>
            <trkpt lon="-124.079450" lat="40.054750"><ele>0.0</ele></trkpt>
            <trkpt lon="-124.079489" lat="40.054169"><ele>0.0</ele></trkpt>
            <trkpt lon="-124.079723" lat="40.049052"><ele>0.0</ele></trkpt>
            <trkpt lon="-124.079658" lat="40.047114"><ele>0.0</ele></trkpt>
            <trkpt lon="-124.079465" lat="40.045882"><ele>0.0</ele></trkpt>
            <trkpt lon="-124.078902" lat="40.045049"><ele>5.0</ele></trkpt>
            <trkpt lon="-124.078816" lat="40.045016"><ele>5.0</ele></trkpt>
            <trkpt lon="-124.078810" lat="40.045025"><ele>5.0</ele></trkpt>
            <trkpt lon="-124.078640" lat="40.044960"><ele>8.0</ele></trkpt>
            <trkpt lon="-124.078390" lat="40.045000"><ele>5.0</ele></trkpt>
            <trkpt lon="-124.078400" lat="40.045020"><ele>5.0</ele></trkpt>
            <trkpt lon="-124.078670" lat="40.045040"><ele>5.0</ele></trkpt>
            <trkpt lon="-124.078740" lat="40.045060"><ele>5.0</ele></trkpt>
            <trkpt lon="-124.078760" lat="40.045110"><ele>5.0</ele></trkpt>
            <trkpt lon="-124.078730" lat="40.045160"><ele>5.0</ele></trkpt>
            <trkpt lon="-124.078630" lat="40.045210"><ele>5.0</ele></trkpt>
            <trkpt lon="-124.078630" lat="40.045210"><ele>5.0</ele></trkpt>
            <trkpt lon="-124.078020" lat="40.045180"><ele>20.0</ele></trkpt>
            <trkpt lon="-124.077864" lat="40.045191"><ele>20.0</ele></trkpt>
            <trkpt lon="-124.077869" lat="40.045191"><ele>20.0</ele></trkpt>
            <trkpt lon="-124.077740" lat="40.045200"><ele>20.0</ele></trkpt>
            <trkpt lon="-124.077490" lat="40.045180"><ele>28.0</ele></trkpt>
            <trkpt lon="-124.077490" lat="40.045180"><ele>28.0</ele></trkpt>
            <trkpt lon="-124.077070" lat="40.045060"><ele>28.0</ele></trkpt>
            <trkpt lon="-124.077070" lat="40.045060"><ele>28.0</ele></trkpt>
            <trkpt lon="-124.077070" lat="40.045060"><ele>28.0</ele></trkpt>
            <trkpt lon="-124.076930" lat="40.045230"><ele>28.0</ele></trkpt>
            <trkpt lon="-124.077000" lat="40.045350"><ele>28.0</ele></trkpt>
            <trkpt lon="-124.077150" lat="40.045390"><ele>28.0</ele></trkpt>
            <trkpt lon="-124.077150" lat="40.045390"><ele>28.0</ele></trkpt>
            <trkpt lon="-124.077252" lat="40.045438"><ele>28.0</ele></trkpt>
        </trkseg>
    </trk>
    <trk>
        <name>Tidal Zone 1</name>
        <extensions>
            <ns2:TrackExtension>
                <ns2:DisplayColor>Red</ns2:DisplayColor>
            </ns2:TrackExtension>
        </extensions>
        <trkseg>
            <trkpt lon="-124.363291" lat="40.268419"><ele>0.0</ele></trkpt>
            <trkpt lon="-124.363151" lat="40.265060"><ele>0.0</ele></trkpt>
            <trkpt lon="-124.364256" lat="40.260031"><ele>0.0</ele></trkpt>
            <trkpt lon="-124.362024" lat="40.260139"><ele>33.0</ele></trkpt>
            <trkpt lon="-124.361640" lat="40.265032"><ele>16.0</ele></trkpt>
            <trkpt lon="-124.361987" lat="40.269924"><ele>14.0</ele></trkpt>
            <trkpt lon="-124.363368" lat="40.269885"><ele>0.0</ele></trkpt>
            <trkpt lon="-124.363291" lat="40.268419"><ele>0.0</ele></trkpt>
        </trkseg>
    </trk>
</gpx>