<?xml version="1.0" encoding="UTF-8"?>
<gpx version="1.1" creator="goodtohike synthetic fixture" xmlns="http://www.topografix.com/GPX/1/1">
  <metadata>
    <desc>Baseline. One track, one segment, every hop under NORMAL_HOP_M. Accepted with nothing inserted.</desc>
  </metadata>
  <trk>
    <name>Clean Walk</name>
    <trkseg>
      <trkpt lat="45.000000" lon="-121.000000"><ele>1000</ele></trkpt>
      <trkpt lat="45.000600" lon="-121.000000"><ele>1008</ele></trkpt>
      <trkpt lat="45.001200" lon="-121.000000"><ele>1016</ele></trkpt>
      <trkpt lat="45.001800" lon="-121.000000"><ele>1024</ele></trkpt>
      <trkpt lat="45.002400" lon="-121.000000"><ele>1032</ele></trkpt>
      <trkpt lat="45.003000" lon="-121.000000"><ele>1040</ele></trkpt>
      <trkpt lat="45.003600" lon="-121.000000"><ele>1048</ele></trkpt>
      <trkpt lat="45.004200" lon="-121.000000"><ele>1056</ele></trkpt>
      <trkpt lat="45.004800" lon="-121.000000"><ele>1064</ele></trkpt>
      <trkpt lat="45.005400" lon="-121.000000"><ele>1072</ele></trkpt>
      <trkpt lat="45.006000" lon="-121.000000"><ele>1080</ele></trkpt>
      <trkpt lat="45.006600" lon="-121.000000"><ele>1088</ele></trkpt>
      <trkpt lat="45.007200" lon="-121.000000"><ele>1096</ele></trkpt>
      <trkpt lat="45.007800" lon="-121.000000"><ele>1104</ele></trkpt>
      <trkpt lat="45.008400" lon="-121.000000"><ele>1112</ele></trkpt>
      <trkpt lat="45.009000" lon="-121.000000"><ele>1120</ele></trkpt>
      <trkpt lat="45.009600" lon="-121.000000"><ele>1128</ele></trkpt>
      <trkpt lat="45.010200" lon="-121.000000"><ele>1136</ele></trkpt>
      <trkpt lat="45.010800" lon="-121.000000"><ele>1144</ele></trkpt>
      <trkpt lat="45.011400" lon="-121.000000"><ele>1152</ele></trkpt>
      <trkpt lat="45.012000" lon="-121.000000"><ele>1160</ele></trkpt>
      <trkpt lat="45.012600" lon="-121.000000"><ele>1168</ele></trkpt>
      <trkpt lat="45.013200" lon="-121.000000"><ele>1176</ele></trkpt>
      <trkpt lat="45.013800" lon="-121.000000"><ele>1184</ele></trkpt>
    </trkseg>
  </trk>
</gpx>
